"id","ident","type","name","latitude_deg","longitude_deg","elevation_ft","continent","iso_country","iso_region","municipality","scheduled_service","gps_code","iata_code","local_code","home_link","wikipedia_link","keywords"
6523,"00A","heliport","Total Rf Heliport",40.07080078125,-74.93360137939453,11,"NA","US","US-PA","Bensalem","no","00A",,"00A",,,
6524,"00AK","small_airport","Lowell Field",59.94919968,-151.695999146,450,"NA","US","US-AK","Anchor Point","no","00AK",,"00AK",,,
6525,"00AL","small_airport","Epps Airpark",34.86479949951172,-86.77030181884766,820,"NA","US","US-AL","Harvest","no","00AL",,"00AL",,,
6526,"00AR","heliport","Newport Hospital & Clinic Heliport",35.608699798583984,-91.25489807128906,237,"NA","US","US-AR","Newport","no","00AR",,"00AR",,,
6527,"00AZ","small_airport","Cordes Airport",34.305599212646484,-112.16500091552734,3810,"NA","US","US-AZ","Cordes","no","00AZ",,"00AZ",,,
6528,"00CA","small_airport","Goldstone /Gts/ Airport",35.350498199499995,-116.888000488,3038,"NA","US","US-CA","Barstow","no","00CA",,"00CA",,,
6529,"00CO","small_airport","Cass Field",40.62220001220703,-104.34400177001953,4830,"NA","US","US-CO","Briggsdale","no","00CO",,"00CO",,,
6531,"00FA","small_airport","Grass Patch Airport",28.64550018310547,-82.21900177001953,53,"NA","US","US-FL","Bushnell","no","00FA",,"00FA",,,
6532,"00FD","heliport","Ringhaver Heliport",28.846599578857422,-82.34539794921875,25,"NA","US","US-FL","Riverview","no","00FD",,"00FD",,,
6533,"00FL","small_airport","River Oak Airport",27.230899810791016,-80.96920013427734,35,"NA","US","US-FL","Okeechobee","no","00FL",,"00FL",,,
6534,"00GA","small_airport","Lt World Airport",33.76750183105469,-84.06829833984375,700,"NA","US","US-GA","Lithonia","no","00GA",,"00GA",,,
6535,"00GE","heliport","Caffrey Heliport",33.88420104980469,-84.73390197753906,957,"NA","US","US-GA","Hiram","no","00GE",,"00GE",,,
6536,"00HI","heliport","Kaupulehu Heliport",19.832500457763672,-155.98199462890625,43,"NA","US","US-HI","Kailua/Kona","no","00HI",,"00HI",,,
6537,"00ID","small_airport","Delta Shores Airport",48.145301818847656,-116.21399688720703,2064,"NA","US","US-ID","Clark Fork","no","00ID",,"00ID",,,
6538,"00II","heliport","Bailey Generation Station Heliport",41.644500732421875,-87.122802734375,600,"NA","US","US-IN","Chesterton","no","00II",,"00II",,,
6539,"00IL","small_airport","Hammer Airport",41.97840118408203,-89.5604019165039,840,"NA","US","US-IL","Polo","no","00IL",,"00IL",,,
6540,"00IN","heliport","St Mary Medical Center Heliport",41.51139831542969,-87.2605972290039,634,"NA","US","US-IN","Hobart","no","00IN",,"00IN",,,
6541,"00IS","small_airport","Hayenga's Cant Find Farms Airport",40.02560043334961,-89.1229019165039,820,"NA","US","US-IL","Kings","no","00IS",,"00IS",,,
6542,"00KS","small_airport","Hayden Farm Airport",38.72779846191406,-94.93049621582031,1100,"NA","US","US-KS","Gardner","no","00KS",,"00KS",,,
6543,"00KY","small_airport","Robbins Roost Airport",37.409400939941406,-84.61969757080078,1265,"NA","US","US-KY","Stanford","no","00KY",,"00KY",,,
45437,"00LA","heliport","Shell Chemical East Site Heliport",30.191944,-90.980833,15,"NA","US","US-LA","Gonzales","no","00LA",,"00LA",,,
6544,"00LL","heliport","Ac & R Components Heliport",39.66529846191406,-89.70559692382812,600,"NA","US","US-IL","Chatham","no","00LL",,"00LL",,,
6545,"00LS","small_airport","Lejeune Airport",30.13629913330078,-92.42939758300781,12,"NA","US","US-LA","Esterwood","no","00LS",,"00LS",,,
6546,"00MD","small_airport","Slater Field",38.75709915161133,-75.75379943847656,45,"NA","US","US-MD","Federalsburg","no","00MD",,"00MD",,,
6547,"00MI","heliport","Dow Chemical Heliport",43.94940185546875,-86.41670227050781,588,"NA","US","US-MI","Ludington","no","00MI",,"00MI",,,
6548,"00MN","small_airport","Battle Lake Municipal Airport",46.29999923706055,-95.70030212402344,1365,"NA","US","US-MN","Battle Lake","no","00MN",,"00MN",,,
6549,"00MO","small_airport","Cooper Flying Service Airport",37.202800750732,-94.412399291992,970,"NA","US","US-MO","Alba","no","00MO",,"00MO",,,"5K8"
6550,"00MT","small_airport","Sands Ranch Airport",48.537498474121094,-109.70500183105469,2600,"NA","US","US-MT","Havre","no","00MT",,"00MT",,,
6551,"00N","small_airport","Bucks Airport",39.473201751708984,-75.1852035522461,105,"NA","US","US-NJ","Bridgeton","no","00N",,"00N",,,
6552,"00NC","small_airport","North Raleigh Airport",36.085201263427734,-78.37139892578125,348,"NA","US","US-NC","Louisburg","no","00NC",,"00NC",,,
6553,"00NJ","heliport","Colgate-Piscataway Heliport",40.52090072631836,-74.47460174560547,78,"NA","US","US-NJ","New Brunswick","no","00NJ",,"00NJ",,,
6554,"00NY","small_airport","Weiss Airfield",42.90010070800781,-77.49970245361328,1000,"NA","US","US-NY","West Bloomfield","no","00NY",,"00NY",,,
6555,"00OH","small_airport","Exit 3 Airport",41.59090042114258,-84.14219665527344,785,"NA","US","US-OH","Wauseon","no","00OH",,"00OH",,,
6556,"00OI","heliport","Miami Valley Hospital Heliport",39.74530029296875,-84.1874008178711,905,"NA","US","US-OH","Dayton","no","00OI",,"00OI",,,
6557,"00OR","heliport","Steel Systems Heliport",44.932899475097656,-123.12999725341797,195,"NA","US","US-OR","Salem","no","00OR",,"00OR",,,
6558,"00PA","heliport","R J D Heliport",39.94889831542969,-75.74690246582031,402,"NA","US","US-PA","Coatesville","no","00PA",,"00PA",,,
45773,"00PN","small_airport","Ferrell Field",41.2995,-80.211111,1301,"NA","US","US-PA","Mercer","no","00PN",,"00PN",,,
6559,"00PS","small_airport","Thomas Field",40.37779998779297,-77.36530303955078,815,"NA","US","US-PA","Loysville","no","00PS",,"00PS",,,
6560,"00S","small_airport","Mc Kenzie Bridge State Airport",44.183200836199994,-122.088996887,1620,"NA","US","US-OR","Mc Kenzie Bridge","no","00S",,"00S",,"http://en.wikipedia.org/wiki/McKenzie_Bridge_State_Airport",
6561,"00SC","small_airport","Flying O Airport",34.0093994140625,-80.26719665527344,150,"NA","US","US-SC","Sumter","no","00SC",,"00SC",,,
6562,"00TA","heliport","Sw Region Faa Heliport",32.826900482177734,-97.30580139160156,598,"NA","US","US-TX","Fort Worth","no","00TA",,"00TA",,,
6563,"00TE","heliport","Tcjc-Northeast Campus Heliport",32.847599029541016,-97.18949890136719,600,"NA","US","US-TX","Fort Worth","no","00TE",,"00TE",,,
6564,"00TN","small_airport","Ragsdale Road Airport",35.515899658203125,-85.95359802246094,1100,"NA","US","US-TN","Manchester","no","00TN",,"00TN",,,
6565,"00TS","small_airport","Alpine Range Airport",32.607601165771484,-97.24199676513672,670,"NA","US","US-TX","Everman","no","00TS",,"00TS",,,
6566,"00TX","heliport","San Jacinto Methodist Hospital Heliport",29.737699508666992,-94.9802017211914,19,"NA","US","US-TX","Baytown","no","00TX",,"00TX",,,
6567,"00UT","closed","Clear Creek Ranch Airport",37.247798919677734,-112.8219985961914,6138,"NA","US","US-UT","Kanab","no","00UT",,"00UT",,,
6568,"00VA","small_airport","Vaughan Airport",36.57600021,-78.9991684,551,"NA","US","US-VA","Alton","no","00VA",,"00VA",,,
6569,"00VI","small_airport","Groundhog Mountain Airport",36.663299560546875,-80.49949645996094,2680,"NA","US","US-VA","Hillsville","no","00VI",,"00VI",,,
6570,"00W","small_airport","Lower Granite State Airport",46.673500061035156,-117.44300079345703,719,"NA","US","US-WA","Colfax","no","00W",,"00W",,,
6571,"00WA","small_airport","Howell Airport",47.17839813232422,-122.77200317382812,150,"NA","US","US-WA","Longbranch","no","00WA",,"00WA",,,
6572,"00WI","small_airport","Northern Lite Airport",44.304298400878906,-89.05010223388672,860,"NA","US","US-WI","Waupaca","no","00WI",,"00WI",,,
6573,"00WN","small_airport","Hawks Run Airport",46.25,-117.2490005493164,2900,"NA","US","US-WA","Asotin","no","00WN",,"00WN",,,
6574,"00WV","small_airport","Lazy J. Aerodrome",38.82889938354492,-79.86609649658203,2060,"NA","US","US-WV","Beverly","no","00WV",,"00WV",,,
6575,"00XS","small_airport","L P Askew Farms Airport",33.03340148925781,-101.93399810791016,3110,"NA","US","US-TX","O'Donnell","no","00XS",,"00XS",,,
6576,"01A","small_airport","Purkeypile Airport",62.943599700927734,-152.27000427246094,1950,"NA","US","US-AK","Purkeypile","no","01A",,"01A",,,
6577,"01AK","heliport","Providence Seward Medical Center Heliport",60.105873975399994,-149.446249008,120,"NA","US","US-AK","Seward","no","01AK",,"01AK",,,
6578,"01AL","small_airport","Ware Island Airport",32.94599914550781,-86.51390075683594,344,"NA","US","US-AL","Clanton","no","01AL",,"01AL",,,
6579,"01AR","heliport","Community Hospital of De Queen Heliport",34.047298431396484,-94.35489654541016,400,"NA","US","US-AR","De Queen","no","01AR",,"01AR",,,
6580,"01AZ","heliport","Yat Heliport",34.60810089111328,-111.86499786376953,3300,"NA","US","US-AZ","Camp Verde","no","01AZ",,"01AZ",,,
6581,"01C","small_airport","Grant Airport",43.34170150756836,-85.7750015258789,815,"NA","US","US-MI","Grant","no","01C",,"01C",,,
6582,"01CA","heliport","Lugo Substation Heliport",34.368240591699994,-117.370058745,3733,"NA","US","US-CA","Hesperia","no","01CA",,"01CA",,,
6583,"01CL","small_airport","Swansboro Country Airport",38.79990005493164,-120.73400115966797,2594,"NA","US","US-CA","Placerville","no","01CL",,"01CL",,,
6584,"01CN","heliport","Los Angeles County Sheriff's Department Heliport",34.03779983520508,-118.15399932861328,300,"NA","US","US-CA","Los Angeles","no","01CN",,"01CN",,,
6585,"01CO","heliport","St Vincent General Hospital Heliport",39.24530029296875,-106.24600219726562,10175,"NA","US","US-CO","Leadville","no","01CO",,"01CO",,,
6586,"01CT","heliport","Berlin Fairgrounds Heliport",41.62730026245117,-72.72750091552734,60,"NA","US","US-CT","Berlin","no","01CT",,"01CT",,,
6587,"01FA","small_airport","Rybolt Ranch Airport",28.589399337768555,-81.14420318603516,55,"NA","US","US-FL","Orlando","no","01FA",,"01FA",,,
6588,"01FD","heliport","Florida Hospital-Altamonte Heliport",28.666400909423828,-81.37059783935547,86,"NA","US","US-FL","Altamonte Springs","no","01FD",,"01FD",,,
6589,"01FL","small_airport","Cedar Knoll Flying Ranch Airport",28.78190040588379,-81.1592025756836,19,"NA","US","US-FL","Geneva","no","01FL",,"01FL",,,
6590,"01GA","heliport","Medical Center Heliport",32.47930145263672,-84.9791030883789,319,"NA","US","US-GA","Columbus","no","01GA",,"01GA",,,
6591,"01GE","small_airport","The Farm Airport",32.674400329589844,-82.77110290527344,375,"NA","US","US-GA","Wrightsville","no","01GE",,"01GE",,,
6592,"01IA","small_airport","Stender Airport",41.66109848022461,-90.74130249023438,725,"NA","US","US-IA","Maysville","no","01IA",,"01IA",,,
6530,"01ID","small_airport","Lava Hot Springs Airport",42.60820007324219,-112.03199768066406,5268,"NA","US","US-ID","Lava Hot Springs","no","01ID",,"01ID",,,"Formerly 00E"
6593,"01II","small_airport","Myers Field",39.8849983215332,-86.50669860839844,950,"NA","US","US-IN","Lizton","no","01II",,"01II",,,
6594,"01IL","heliport","Hoopeston Community Memorial Hospital Heliport",40.45859909057617,-87.65950012207031,583,"NA","US","US-IL","Hoopeston","no","01IL",,"01IL",,,
6595,"01IN","heliport","Community Hospital Heliport",40.13090133666992,-85.69580078125,890,"NA","US","US-IN","Anderson","no","01IN",,"01IN",,,
6596,"01IS","small_airport","William E. Koenig Airport",39.01620101928711,-90.31819915771484,670,"NA","US","US-IL","Dow","no","01IS",,"01IS",,,
6597,"01J","small_airport","Hilliard Airpark",30.68630027770996,-81.90570068359375,59,"NA","US","US-FL","Hilliard","no","01J",,"01J",,,
6598,"01K","small_airport","Caldwell Municipal Airport",37.03609848022461,-97.5864028930664,1157,"NA","US","US-KS","Caldwell","no","01K",,"01K",,,
6599,"01KS","small_airport","Flying N Ranch Airport",38.54059982299805,-97.00330352783203,1485,"NA","US","US-KS","Lost Springs","no","01KS",,"01KS",,,
6600,"01KY","heliport","Lourdes Hospital Heliport",37.051700592041016,-88.64689636230469,419,"NA","US","US-KY","Paducah","no","01KY",,"01KY",,,
6601,"01LA","small_airport","Barham Airport",32.638999938964844,-91.77369689941406,90,"NA","US","US-LA","Oak Ridge","no","01LA",,"01LA",,,
6602,"01LL","small_airport","Schumaier Restricted Landing Area",38.12580108642578,-89.46389770507812,555,"NA","US","US-IL","Pinckneyville","no","01LL",,"01LL",,,
6603,"01LS","small_airport","Country Breeze Airport",30.70599937438965,-91.07740020751953,125,"NA","US","US-LA","Slaughter","no","01LS",,"01LS",,,
6604,"01MA","heliport","Compaq Andover Heliport",42.625099182128906,-71.18009948730469,140,"NA","US","US-MA","Andover","no","01MA",,"01MA",,,
6605,"01MD","seaplane_base","Annapolis Seaplane Base",38.99919891357422,-76.45600128173828,,"NA","US","US-MD","Annapolis","no","01MD",,"01MD",,,
6606,"01ME","seaplane_base","Saint Peter's Seaplane Base",46.778900146484375,-68.50029754638672,608,"NA","US","US-ME","Portage Lake","no","01ME",,"01ME",,,
6607,"01MI","heliport","Flow Through Terminal Heliport",43.04949951171875,-83.67970275878906,736,"NA","US","US-MI","Flint","no","01MI",,"01MI",,,
6608,"01MN","seaplane_base","Barnes Seaplane Base",47.899600982666016,-92.55740356445312,1358,"NA","US","US-MN","Cook","no","01MN",,"01MN",,,
6609,"01MO","heliport","Highway Patrol Troop C Headquarters Heliport",38.641700744628906,-90.48429870605469,615,"NA","US","US-MO","Town and Country","no","01MO",,"01MO",,,
6610,"01MT","small_airport","Crystal Lakes Resort Airport",48.789100646972656,-114.87999725341797,3141,"NA","US","US-MT","Fortine","no","01MT",,"01MT",,,
6611,"01NC","small_airport","Topsail Airpark",34.47529983520508,-77.5813980102539,65,"NA","US","US-NC","Holly Ridge","no","01NC",,"01NC",,,
6612,"01NE","small_airport","Detour Airport",40.84360122680664,-100.65299987792969,3000,"NA","US","US-NE","Wellfleet","no","01NE",,"01NE",,,
6613,"01NH","small_airport","Moore Airfield",43.644500732421875,-72.08699798583984,835,"NA","US","US-NH","Enfield","no","01NH",,"01NH",,,
6614,"01NJ","heliport","Albert Guido Memorial Heliport",40.741798400878906,-74.13710021972656,10,"NA","US","US-NJ","Newark","no","01NJ",,"01NJ",,,
45537,"01NM","small_airport","Champion Ranch Airport",33.008611,-104.540278,3630,"NA","US","US-NM","Artesia","no","01NM",,"01NM",,,
6615,"01NV","small_airport","Lantana Ranch Airport",38.76390075683594,-119.0270004272461,4600,"NA","US","US-NV","Yerington","no","01NV",,"01NV",,,
6616,"01NY","heliport","Vassar Hospital Heliport",41.70009994506836,-73.94960021972656,100,"NA","US","US-NY","Poughkeepsie","no","01NY",,"01NY",,,
6617,"01OI","heliport","Galion Community Hospital Heliport",40.73059844970703,-82.80159759521484,1140,"NA","US","US-OH","Galion","no","01OI",,"01OI",,,
6618,"01OK","small_airport","Lawrence Airport",35.294498443603516,-98.6364974975586,1525,"NA","US","US-OK","Eakly","no","01OK",,"01OK",,,
6619,"01OR","small_airport","Red & White Flying Service Airport",43.119300842285156,-121.04499816894531,4346,"NA","US","US-OR","Silver Lake","no","01OR",,"01OR",,,
6620,"01PA","heliport","Pine Heliport",40.655601501464844,-80.0509033203125,1215,"NA","US","US-PA","Mars","no","01PA",,"01PA",,,
6621,"01PN","small_airport","Bierly(Personal Use) Airport",40.930599212646484,-77.73889923095703,960,"NA","US","US-PA","Bellefonte","no","01PN",,"01PN",,,
6622,"01PS","small_airport","Nort's Resort Airport",41.59590148925781,-76.02960205078125,1040,"NA","US","US-PA","Meshoppen","no","01PS",,"01PS",,,
6623,"01SC","small_airport","York Airport",35.032100677490234,-81.25279998779297,779,"NA","US","US-SC","York","no","01SC",,"01SC",,,
6624,"01TA","heliport","Thirty Thirty Matlock Office Center Heliport",32.69419860839844,-97.11579895019531,630,"NA","US","US-TX","Arlington","no","01TA",,"01TA",,,
6625,"01TE","small_airport","Smith Field",32.73759841918945,-96.4280014038086,505,"NA","US","US-TX","Forney","no","01TE",,"01TE",,,
6626,"01TN","small_airport","Colonial Air Park",34.99589920043945,-89.73059844970703,370,"NA","US","US-TN","Collierville","no","01TN",,"01TN",,,
6627,"01TS","heliport","St Joseph Hospital Heliport",32.72850036621094,-97.32450103759766,675,"NA","US","US-TX","Fort Worth","no","01TS",,"01TS",,,
6628,"01TX","small_airport","Mims Farm Ultralightport",32.38759994506836,-96.87750244140625,610,"NA","US","US-TX","Waxahachie","no","01TX",,"01TX",,,
6629,"01U","small_airport","Duckwater Airport",38.851600646972656,-115.63400268554688,5124,"NA","US","US-NV","Duckwater","no","01U",,"01U",,,
6630,"01UT","small_airport","La Sal Junction Airport",38.30830001831055,-109.39600372314453,6000,"NA","US","US-UT","La Sal","no","01UT",,"01UT",,,
6631,"01VA","small_airport","Pickles Airport",39.125,-77.9250030518,500,"NA","US","US-VA","Berryville","no","01VA",,"01VA",,,
6632,"01WA","heliport","Willapa Harbor Heliport",46.66320037841797,-123.81199645996094,154,"NA","US","US-WA","South Bend","no","01WA",,"01WA",,,
6633,"01WI","small_airport","Prehn Cranberry Company Airport",44.0099983215332,-90.38919830322266,930,"NA","US","US-WI","Tomah","no","01WI",,"01WI",,,
6634,"01WN","heliport","Whidbey General Hospital Heliport",48.213401794433594,-122.68499755859375,103,"NA","US","US-WA","Coupeville","no","01WN",,"01WN",,,
45900,"01WT","heliport","Odyssey Heliport",47.518178,-122.210908,20,"NA","US","US-WA","Renton","no","01WT",,"01WT",,,
6635,"01WY","small_airport","Keyhole Airport",44.347198486328125,-104.81099700927734,4250,"NA","US","US-WY","Moorcroft","no","01WY",,"01WY",,,
46288,"01XA","heliport","Seton Medical Center Hays Heliport",30.007222,-97.853333,715,"NA","US","US-TX","Kyle","no","01XA",,"01XA",,,
6636,"01XS","heliport","Meadowood Ranch Heliport",32.020198822021484,-95.74549865722656,500,"NA","US","US-TX","Athens","no","01XS",,"01XS",,,
6637,"02AK","small_airport","Rustic Wilderness Airport",61.87689971923828,-150.09800720214844,190,"NA","US","US-AK","Willow","no","02AK",,"02AK",,,
6638,"02AL","small_airport","Bass Field",30.37150001525879,-87.76439666748047,61,"NA","US","US-AL","Foley","no","02AL",,"02AL",,,
43030,"02AR","small_airport","Three Rivers Airport",34.8224449158,-92.4444198608,264,"NA","US","US-AR","Little Rock","no","02AR",,"02AR",,,
6640,"02AZ","small_airport","Winchester Farm Airstrip",32.376399993896484,-109.93699645996094,4200,"NA","US","US-AZ","Willcox","no","02AZ",,"02AZ",,,
6641,"02CA","heliport","Swepi Beta Platform Ellen Heliport",33.58250045776367,-118.12899780273438,122,"NA","US","US-CA","Huntington Beach","no","02CA",,"02CA",,,
6642,"02CD","small_airport","Shannon Field",34.129600524902344,-90.52400207519531,165,"NA","US","US-MS","Clarksdale","no","02CD",,"02CD",,,
6643,"02CL","small_airport","Conover Air Lodge Airport",34.76110076904297,-119.05899810791016,5160,"NA","US","US-CA","Frazier Park","no","02CL",,"02CL",,,
6644,"02CO","small_airport","Mc Cullough Airport",37.64329910279999,-106.04699707,7615,"NA","US","US-CO","Monte Vista","no","02CO",,"02CO",,,
6645,"02CT","heliport","Strangers Point Heliport",41.91960144042969,-72.44450378417969,540,"NA","US","US-CT","Ellington","no","02CT",,"02CT",,,
6646,"02FA","small_airport","Osborn Airfield",28.52669906616211,-81.87480163574219,121,"NA","US","US-FL","Groveland","no","02FA",,"02FA",,,
45347,"02FL","small_airport","Cuchens Airport",30.642778,-86.123889,215,"NA","US","US-FL","Defuniak Springs","no","02FL",,"02FL",,,
6648,"02GA","small_airport","Doug Bolton Field",34.202598571777344,-83.42900085449219,884,"NA","US","US-GA","Commerce","no","02GA",,"02GA",,,
6649,"02GE","small_airport","Etowah Fields Airport",34.17530059814453,-84.92440032958984,710,"NA","US","US-GA","Euharlee","no","02GE",,"02GE",,,
6650,"02HI","heliport","K3 Helipad Heliport",21.36199951171875,-157.9510040283203,9,"NA","US","US-HI","Pearl Harbor","no","02HI",,"02HI",,,
6651,"02IA","heliport","Boone County Hospital Heliport",42.05609893798828,-93.87799835205078,1160,"NA","US","US-IA","Boone","no","02IA",,"02IA",,,
6652,"02ID","small_airport","Morgan Ranch Airport",44.55550003051758,-115.30500030517578,5634,"NA","US","US-ID","Cascade","no","02ID",,"02ID",,,
6653,"02II","small_airport","King Ultralightport",40.06230163574219,-86.21050262451172,925,"NA","US","US-IN","Westfield","no","02II",,"02II",,,
6654,"02IN","small_airport","Diamond P. Field",40.208900451660156,-85.54080200195312,904,"NA","US","US-IN","Muncie","no","02IN",,"02IN",,,
6655,"02IS","heliport","Condell Medical Center Heliport",42.274600982666016,-87.9572982788086,762,"NA","US","US-IL","Libertyville","no","02IS",,"02IS",,,
6656,"02KS","small_airport","Jmj Landing Airport",39.222198486328125,-96.0552978515625,1170,"NA","US","US-KS","St Marys","no","02KS",,"02KS",,,
6657,"02KY","heliport","Boone National Guard Heliport",38.18339920043945,-84.89990234375,760,"NA","US","US-KY","Frankfort","no","02KY",,"02KY",,,
6658,"02LA","heliport","La State Police Troop G Heliport",32.53129959106445,-93.66020202636719,168,"NA","US","US-LA","Bossier City","no","02LA",,"02LA",,,
6659,"02LS","heliport","Windy Hill Heliport",30.148300170898438,-91.91899871826172,25,"NA","US","US-LA","Broussard","no","02LS",,"02LS",,,
6660,"02MA","heliport","Cuttyhunk Heliport",41.41960144042969,-70.927001953125,9,"NA","US","US-MA","Gosnold","no","02MA",,"02MA",,,
6661,"02ME","small_airport","Old Acton Airfield",43.53730010986328,-70.92939758300781,700,"NA","US","US-ME","Acton","no","02ME",,"02ME",,,
6662,"02MI","small_airport","Fairplains Airpark",43.157100677490234,-85.14849853515625,850,"NA","US","US-MI","Greenville","no","02MI",,"02MI",,,
6663,"02MN","small_airport","Greenbush Municipal Airport",48.68330001831055,-96.19200134277344,1070,"NA","US","US-MN","Greenbush","no","02MN",,"02MN",,,
6664,"02MO","small_airport","Troy Airpark",39.04999923706055,-91.03350067138672,650,"NA","US","US-MO","Troy","no","02MO",,"02MO",,,
6665,"02MS","small_airport","Watts Field",34.100101470947266,-90.8468017578125,153,"NA","US","US-MS","Rochdale","no","02MS",,"02MS",,,
6666,"02MT","small_airport","Barrett Field",47.23740005493164,-111.74199676513672,3350,"NA","US","US-MT","Cascade","no","02MT",,"02MT",,,
6667,"02MU","small_airport","Timber Line Airpark",36.65420150756836,-93.79740142822266,1550,"NA","US","US-MO","Cassville","no","02MU",,"02MU",,,
45686,"02NC","heliport","Race City Heliport",35.541111,-80.597778,809,"NA","US","US-NC","Landis","no","02NC",,"02NC",,,
6668,"02NE","small_airport","Benes Service Airport",41.074501037597656,-96.90450286865234,1550,"NA","US","US-NE","Valparaiso","no","02NE",,"02NE",,,
6669,"02NH","seaplane_base","Iroquois Landing Seaplane Base",44.657100677490234,-71.21910095214844,1180,"NA","US","US-NH","Dummer","no","02NH",,"02NH",,,
6670,"02NJ","heliport","Penske Heliport",40.55730056762695,-74.46710205078125,78,"NA","US","US-NJ","Piscataway","no","02NJ",,"02NJ",,,
6671,"02NV","small_airport","Paiute Meadows Airport",41.30329895019531,-118.5979995727539,4443,"NA","US","US-NV","Winnemucca","no","02NV",,"02NV",,,
6672,"02NY","heliport","Hansen Heliport",43.132598876953125,-75.65550231933594,435,"NA","US","US-NY","Durhamville","no","02NY",,"02NY",,,
6673,"02OH","small_airport","Zimmerman Airport",41.376399993896484,-83.08329772949219,614,"NA","US","US-OH","Fremont","no","02OH",,"02OH",,,
6674,"02OI","small_airport","Murtha Airport",41.801998138427734,-80.56539916992188,950,"NA","US","US-OH","Conneaut","no","02OI",,"02OI",,,
6675,"02OK","heliport","Canon Heliport",35.45840072631836,-97.52529907226562,1191,"NA","US","US-OK","Oklahoma City","no","02OK",,"02OK",,,
6676,"02OR","small_airport","Rowena Dell Airport",45.68149948120117,-121.31600189208984,705,"NA","US","US-OR","The Dalles","no","02OR",,"02OR",,,
6677,"02P","heliport","Stottle Memorial Heliport",40.40359878540039,-77.55660247802734,591,"NA","US","US-PA","Honey Grove","no","02P",,"02P",,,
6678,"02PA","heliport","Lag Iii Heliport",40.43830108642578,-79.7699966430664,1070,"NA","US","US-PA","Monroeville","no","02PA",,"02PA",,,
6679,"02PN","heliport","Peco Berwyn Heliport",40.06959915161133,-75.4552001953125,390,"NA","US","US-PA","Berwyn","no","02PN",,"02PN",,,
6680,"02PR","small_airport","Cuylers Airport",18.45330047607422,-66.36689758300781,15,"NA","PR","PR-U-A","Vega Baja","no","02PR",,"02PR",,,
6681,"02PS","small_airport","Hughes Ultralightport",41.90060043334961,-77.23030090332031,1700,"NA","US","US-PA","Tioga","no","02PS",,"02PS",,,
6682,"02SC","small_airport","Harpers Airport",32.75849914550781,-81.22480010986328,111,"NA","US","US-SC","Estill","no","02SC",,"02SC",,,
6683,"02T","small_airport","Wise River Airport",45.769100189208984,-112.98200225830078,5830,"NA","US","US-MT","Wise River","no","02T",,"02T",,,
6684,"02TA","heliport","Matagorda Shore Facility Heliport",28.721399307250977,-95.8738021850586,5,"NA","US","US-TX","Matagorda","no","02TA",,"02TA",,,
6685,"02TE","heliport","Baylor Medical Center Heliport",32.39540100097656,-96.86419677734375,560,"NA","US","US-TX","Waxahachie","no","02TE",,"02TE",,,
6686,"02TN","small_airport","Ellis Field",35.780601501464844,-86.58419799804688,840,"NA","US","US-TN","Murfreesboro","no","02TN",,"02TN",,,
6687,"02TS","heliport","Fwomc Heliport",32.74760055541992,-97.37000274658203,684,"NA","US","US-TX","Fort Worth","no","02TS",,"02TS",,,
6688,"02TX","small_airport","The Palms At Kitty Hawk Airport",33.3704032898,-101.92288208,3235,"NA","US","US-TX","New Home","no","02TX",,"02TX",,,
6689,"02UT","small_airport","Lucin Airport",41.36629867553711,-113.84300231933594,4412,"NA","US","US-UT","Lucin","no","02UT",,"02UT",,,
6690,"02VA","small_airport","The Greenhouse Airport",38.435699462890625,-77.8572006225586,320,"NA","US","US-VA","Culpeper","no","02VA",,"02VA",,,
6691,"02VG","heliport","Northstar Aviation Heliport",36.63880157470703,-82.11669921875,1850,"NA","US","US-VA","Bristol","no","02VG",,"02VG",,,
6692,"02WA","small_airport","Cawleys South Prairie Airport",47.15230178833008,-122.09400177001953,690,"NA","US","US-WA","South Prairie","no","02WA",,"02WA",,,
6693,"02WI","small_airport","Beer Airport",45.031898498535156,-92.65579986572266,920,"NA","US","US-WI","Hudson","no","02WI",,"02WI",,,
6694,"02WN","small_airport","Fowler Field",48.74580001831055,-119.31900024414062,2150,"NA","US","US-WA","Tonasket","no","02WN",,"02WN",,,
6695,"02XS","small_airport","Seidel Ranch Airport",30.1476993560791,-97.66280364990234,510,"NA","US","US-TX","Elroy","no","02XS",,"02XS",,,
6696,"03AK","seaplane_base","Joe Clouds Seaplane Base",60.72722244262695,-151.13278198242188,150,"NA","US","US-AK","Kenai","no","03AK",,"03AK",,,
6697,"03AL","heliport","Jackson County Hospital Heliport",34.6624984741,-86.047203064,628,"NA","US","US-AL","Scottsboro","no","03AL",,"03AL",,,
6698,"03AR","heliport","Hscmh Heliport",34.357601165771484,-92.78849792480469,350,"NA","US","US-AR","Malvern","no","03AR",,"03AR",,,
6699,"03AZ","small_airport","Thompson International Aviation Airport",31.433399200439453,-110.08399963378906,4275,"NA","US","US-AZ","Hereford","no","03AZ",,"03AZ",,,
6700,"03CA","heliport","Grossmont Hospital Heliport",32.77980041503906,-117.00599670410156,634,"NA","US","US-CA","La Mesa","no","03CA",,"03CA",,,
6701,"03CO","small_airport","Kugel-Strong Airport",40.2125015259,-104.744003296,4950,"NA","US","US-CO","Platteville","no","03CO",,"03CO",,,
6702,"03FA","small_airport","Lake Persimmon Airstrip",27.353099822998047,-81.40809631347656,70,"NA","US","US-FL","Lake Placid","no","03FA",,"03FA",,,
6703,"03FD","small_airport","Tharpe Airport",30.828800201416016,-85.73100280761719,115,"NA","US","US-FL","Bonifay","no","03FD",,"03FD",,,
6704,"03FL","heliport","Ranger Heliport",26.683700561523438,-80.18730163574219,20,"NA","US","US-FL","West Palm Beach","no","03FL",,"03FL",,,
6705,"03I","small_airport","Clarks Dream Strip",39.64419937133789,-83.01820373535156,680,"NA","US","US-OH","Circleville","no","03I",,"03I",,,
6706,"03IA","small_airport","East Field",41.58190155029297,-92.4613037109375,954,"NA","US","US-IA","Montezuma","no","03IA",,"03IA",,,
6707,"03ID","small_airport","Flying Y Ranch Airport",44.7943000793457,-116.53299713134766,3180,"NA","US","US-ID","Council","no","03ID",,"03ID",,,
6708,"03II","small_airport","Davis Field Ultralightport",37.9620018005,-87.7789001465,465,"NA","US","US-IN","Mount Vernon","no","03II",,"03II",,,
6709,"03IL","small_airport","Wix Airport",41.40230178833008,-87.81670379638672,750,"NA","US","US-IL","Monee","no","03IL",,"03IL",,,
6710,"03IN","small_airport","Heinzman Airport",40.18000030517578,-86.01249694824219,850,"NA","US","US-IN","Arcadia","no","03IN",,"03IN",,,
6711,"03IS","heliport","St Anthony's Hospital Heliport",38.904998779296875,-90.17340087890625,580,"NA","US","US-IL","Alton","no","03IS",,"03IS",,,
6712,"03KS","heliport","Valley Grain Heliport",39.86470031738281,-95.26409912109375,1160,"NA","US","US-KS","Highland","no","03KS",,"03KS",,,
6713,"03KY","small_airport","Flying H Farms Airport",37.79169845581055,-87.54139709472656,385,"NA","US","US-KY","Henderson","no","03KY",,"03KY",,,
6714,"03LA","heliport","Damien Heliport",30.199600219726562,-91.12789916992188,25,"NA","US","US-LA","Carville","no","03LA",,"03LA",,,
6715,"03LS","heliport","Fmc Nr 1 Heliport",32.159000396728516,-91.70800018310547,79,"NA","US","US-LA","Winnsboro","no","03LS",,"03LS",,,
6716,"03M","seaplane_base","Lakeside Marina Seaplane Base",44.320899963378906,-69.8895034790039,165,"NA","US","US-ME","East Winthrop","no","03M",,"03M",,,
6717,"03MA","small_airport","Hadley Airport",42.39310073852539,-72.552001953125,150,"NA","US","US-MA","Hadley","no","03MA",,"03MA",,,
6718,"03MD","heliport","Upper Chesapeake Medical Center Heliport",39.522499084472656,-76.32669830322266,302,"NA","US","US-MD","Bel Air","no","03MD",,"03MD",,,
6719,"03ME","small_airport","Maple Ridge Airport",44.08420181274414,-70.6272964477539,556,"NA","US","US-ME","Harrison","no","03ME",,"03ME",,,
6720,"03MI","heliport","Harold Miller Heliport",43.550899505615234,-83.86219787597656,585,"NA","US","US-MI","Bay City","no","03MI",,"03MI",,,
6721,"03MN","small_airport","Nauerth Land Ranch Airport",43.62519836425781,-95.22470092773438,1435,"NA","US","US-MN","Lakefield","no","03MN",,"03MN",,,
6722,"03MO","small_airport","Cahoochie Airport",37.884498596191406,-93.13159942626953,1010,"NA","US","US-MO","Urbana","no","03MO",,"03MO",,,
6723,"03MS","heliport","Vicksburg Medical Center Heliport",32.31880187988281,-90.8832015991211,110,"NA","US","US-MS","Vicksburg","no","03MS",,"03MS",,,
6724,"03MT","small_airport","Cascade Airport",47.27080154418945,-111.72200012207031,3580,"NA","US","US-MT","Cascade","no","03MT",,"03MT",,,
6725,"03MU","small_airport","Mc Donnell Airport",38.4925003052,-94.41249847410002,874,"NA","US","US-MO","Archie","no","03MU",,"03MU",,,
4650,"03N","small_airport","Utirik Airport",11.222000122070312,169.8520050048828,4,"OC","MH","MH-UTI","Utirik Island","yes","03N","UTK","03N",,,
6726,"03NC","small_airport","Pilots Ridge Airport",34.10430145263672,-77.9041976928711,35,"NA","US","US-NC","Carolina Beach","no","03NC",,"03NC",,,
6727,"03ND","small_airport","Olafson Brothers Airport",48.626399993896484,-97.8290023803711,1045,"NA","US","US-ND","Edinburg","no","03ND",,"03ND",,,
6728,"03NE","small_airport","Hyde Ranch Airport",41.5463981628418,-99.3311996459961,2430,"NA","US","US-NE","Comstock","no","03NE",,"03NE",,,
6729,"03NH","heliport","Lorden Heliport",42.815399169921875,-71.12439727783203,400,"NA","US","US-NH","Milford","no","03NH",,"03NH",,,
6730,"03NJ","heliport","At&T Heliport",40.668701171875,-74.41069793701172,360,"NA","US","US-NJ","Berkely Heights","no","03NJ",,"03NJ",,,
6731,"03NV","small_airport","Llama Ranch Airport",40.58440017700195,-115.2979965209961,6120,"NA","US","US-NV","Ruby Valley","no","03NV",,"03NV",,,
6732,"03NY","small_airport","Talmage Field",40.95840072631836,-72.716796875,95,"NA","US","US-NY","Riverhead","no","03NY",,"03NY",,,
6733,"03OH","small_airport","Gibbs Field",41.418399810791016,-83.01740264892578,580,"NA","US","US-OH","Fremont","no","03OH",,"03OH",,,
6734,"03OI","heliport","Marymount Hospital Heliport",41.4208984375,-81.59980010986328,890,"NA","US","US-OH","Garfield Heights","no","03OI",,"03OI",,,
6735,"03OK","small_airport","Sahoma Lake Airport",36.04119873046875,-96.1613998413086,890,"NA","US","US-OK","Sapulpa","no","03OK",,"03OK",,,
6736,"03OR","small_airport","Powwatka Ridge Airport",45.85540008544922,-117.48400115966797,3340,"NA","US","US-OR","Troy","no","03OR",,"03OR",,,
6737,"03PA","heliport","Collegeville Heliport",40.162899017333984,-75.4656982421875,197,"NA","US","US-PA","Collegeville","no","03PA",,"03PA",,,
6738,"03PN","heliport","M.P. Metals Heliport",41.066861,-76.180806,479,"NA","US","US-PA","Berwick","yes","03PN",,"03PN",,,
6739,"03PS","small_airport","Ziggy's Field",40.849998474121094,-77.90560150146484,1050,"NA","US","US-PA","Bellefonte","no","03PS",,"03PS",,,
6740,"03S","small_airport","Sandy River Airport",45.401798248291016,-122.22899627685547,704,"NA","US","US-OR","Sandy","no","03S",,"03S",,"http://en.wikipedia.org/wiki/Sandy_River_Airport",
6741,"03SC","heliport","Seacoast Medical Center Heliport",33.8650016784668,-78.66190338134766,73,"NA","US","US-SC","Little River","no","03SC",,"03SC",,,
6742,"03TA","small_airport","Gay Hill Farm Airport",30.262699127197266,-96.50019836425781,505,"NA","US","US-TX","Gay Hill","no","03TA",,"03TA",,,
6743,"03TE","small_airport","Barronena Ranch Airport",27.491100311279297,-98.66950225830078,600,"NA","US","US-TX","Hebbronville","no","03TE",,"03TE",,,
6744,"03TN","heliport","Eagles Landing Heliport",35.92250061035156,-83.57939910888672,1000,"NA","US","US-TN","Sevierville","no","03TN",,"03TN",,,
6745,"03TS","heliport","Shannon Medical Center Heliport",31.45989990234375,-100.43800354003906,1825,"NA","US","US-TX","San Angelo","no","03TS",,"03TS",,,
6746,"03TX","heliport","M D K Field",29.581600189208984,-95.30719757080078,50,"NA","US","US-TX","Pearland","no","03TX",,"03TX",,,
6747,"03UT","small_airport","A Z Minerals Corporation Airport",37.12080001831055,-109.98600006103516,5315,"NA","US","US-UT","Mexican Hat","no","03UT",,"03UT",,,
6748,"03VA","closed","Whipoorwill Springs Airport",38.66460037231445,-77.57969665527344,250,"NA","US","US-VA","Nokesville","no","03VA",,"03VA",,,
6749,"03WA","small_airport","Spangle Field",47.408199310302734,-117.37200164794922,2440,"NA","US","US-WA","Spangle","no","03WA",,"03WA",,,
6750,"03WI","small_airport","Zink Airport",44.02750015258789,-88.88089752197266,880,"NA","US","US-WI","Berlin","no","03WI",,"03WI",,,
6751,"03WN","small_airport","Aerostone Ranch Airport",45.875,-120.66999816894531,2320,"NA","US","US-WA","Goldendale","no","03WN",,"03WN",,,
6752,"03XS","small_airport","Creekside Airport",31.318099975585938,-100.75399780273438,2100,"NA","US","US-TX","Mertzon","no","03XS",,"03XS",,,
6753,"04AL","heliport","Anniston AHP (Anniston Army Depot)",33.62639999,-85.96720123,686,"NA","US","US-AL","Anniston","no","04AL",,"04AL",,,
6754,"04AR","heliport","Saline Memorial Hospital Heliport",34.57400131225586,-92.58290100097656,430,"NA","US","US-AR","Benton","no","04AR",,"04AR",,,
6755,"04AZ","small_airport","Chinle Airport",36.15420150756836,-109.5510025024414,5515,"NA","US","US-AZ","Chinle","no","04AZ",,"04AZ",,,
6756,"04CA","small_airport","Gray Butte Field",34.563899993896484,-117.67500305175781,3020,"NA","US","US-CA","Palmdale","no","04CA",,"04CA",,,
6757,"04CL","small_airport","Hunt's Sky Ranch Airport",33.08169937133789,-116.44100189208984,2310,"NA","US","US-CA","Julian","no","04CL",,"04CL",,,
6758,"04CT","heliport","Shingle Mill Heliport",41.75510025024414,-73.05239868164062,880,"NA","US","US-CT","Harwinton","no","04CT",,"04CT",,,
6759,"04F","small_airport","De Leon Municipal Airport",32.09880065917969,-98.52529907226562,1293,"NA","US","US-TX","De Leon","no","04F",,"04F",,,
6760,"04FA","small_airport","Richards Field",25.558700561523438,-80.51509857177734,9,"NA","US","US-FL","Homestead","no","04FA",,"04FA",,,
6761,"04FL","small_airport","Cross Creek Farms Airport",29.23940086364746,-81.22200012207031,30,"NA","US","US-FL","Ormond","no","04FL",,"04FL",,,
6762,"04I","small_airport","Columbus Southwest Airport",39.91120147705078,-83.18879699707031,920,"NA","US","US-OH","Columbus","no","04I",,"04I",,,
6763,"04IA","small_airport","Middlekoop Airport",41.08829879760742,-92.05460357666016,801,"NA","US","US-IA","Packwood","no","04IA",,"04IA",,,
6764,"04ID","small_airport","Lanham Field",43.87770080566406,-116.53700256347656,2343,"NA","US","US-ID","Emmett","no","04ID",,"04ID",,,
6765,"04II","small_airport","Turkey Run Airport",41.13059997558594,-84.99410247802734,765,"NA","US","US-IN","New Haven","no","04II",,"04II",,,
6766,"04IL","small_airport","Schertz Aerial Service - Hudson Airport",40.6375007629,-89.0070037842,755,"NA","US","US-IL","Hudson","no","04IL",,"04IL",,,
45410,"04IN","seaplane_base","Lake Gage Seaplane Base",41.701389,-85.113056,954,"NA","US","US-IN","Angola","no","04IN",,"04IN",,,
6767,"04IS","small_airport","Van Gorder Airport",40.1786003112793,-88.56900024414062,728,"NA","US","US-IL","Mansfield","no","04IS",,"04IS",,,
6768,"04KS","heliport","Robinson Industries Heliport",38.97890090942383,-95.2197036743164,835,"NA","US","US-KS","Lawrence","no","04KS",,"04KS",,,
6769,"04KY","small_airport","Natchez Trace Farm Airport",37.135101318359375,-85.78939819335938,710,"NA","US","US-KY","Hiseville","no","04KY",,"04KY",,,
6770,"04LA","heliport","St James Heliport",30.051111,-90.702222,10,"NA","US","US-LA","Lutcher","no","04LA",,"04LA",,,
6771,"04LL","small_airport","Brunner Airport",42.13610076904297,-88.28759765625,750,"NA","US","US-IL","West Dundee","no","04LL",,"04LL",,,
6772,"04LS","heliport","La National Guard Heliport",30.44610023498535,-91.10530090332031,52,"NA","US","US-LA","Baton Rouge","no","04LS",,"04LS",,,
6773,"04MA","closed","Goddard Field (Airport)",42.8097991943,-71.1391983032,200,"NA","US","US-MA","Haverhill","no","04MA",,"04MA",,,
6774,"04MD","heliport","Chesapeake City Heliport",39.51810073852539,-75.82140350341797,40,"NA","US","US-MD","Chesapeake City","no","04MD",,"04MD",,,
6775,"04ME","small_airport","Beech Hill Airport",44.66669845581055,-69.8938980102539,625,"NA","US","US-ME","Mercer","no","04ME",,"04ME",,,
6776,"04MI","small_airport","Rapids Airway Airport",42.53450012207031,-84.62830352783203,880,"NA","US","US-MI","Eaton Rapids","no","04MI",,"04MI",,,
6777,"04MN","small_airport","Helblad Airport",47.985801696777344,-94.68689727783203,1195,"NA","US","US-MN","Kelliher","no","04MN",,"04MN",,,
6778,"04MO","small_airport","Airpark Private Airport",39.30120086669922,-91.45149993896484,767,"NA","US","US-MO","Vandalia","no","04MO",,"04MO",,,
6779,"04MS","small_airport","Nick's Flying Service Inc Airport",32.939601898199996,-90.8373031616,100,"NA","US","US-MS","Rolling Fork","no","04MS",,"04MS",,,
6780,"04MT","small_airport","Pluhar Airport",47.13749777779999,-106.488095,2715,"NA","US","US-MT","Cohagen","no","04MT",,"04MT",,,
6781,"04NC","heliport","Western Wake Medical Center Heliport",35.739200592,-78.7822036743,445,"NA","US","US-NC","Cary","no","04NC",,"04NC",,,
6782,"04NE","small_airport","Mc Connell Field Airport",41.159999847399995,-101.299003601,3035,"NA","US","US-NE","Sarben","no","04NE",,"04NE",,,
6783,"04NJ","small_airport","Emmanuel Airport",39.596801757799994,-75.2334976196,155,"NA","US","US-NJ","Elmer","no","04NJ",,"04NJ",,,
6784,"04NV","small_airport","Kingston Ranch Airport",35.7555007935,-115.665000916,2620,"NA","US","US-NV","Sandy Valley","no","04NV",,"04NV",,,
6785,"04NY","small_airport","Klaverack Airport",42.262298584,-73.6961975098,250,"NA","US","US-NY","Hudson","no","04NY",,"04NY",,,
45733,"04OG","heliport","Teufel Heliport",45.530833,-123.085556,185,"NA","US","US-OR","Forest Grove","no","04OG",,"04OG",,,
6786,"04OH","small_airport","Bossow Airport",41.2476997375,-81.10070037839999,1080,"NA","US","US-OH","Garrettsville","no","04OH",,"04OH",,,
6787,"04OK","heliport","Stillwater Medical Center Heliport",36.1152992249,-97.079498291,984,"NA","US","US-OK","Stillwater","no","04OK",,"04OK",,,
6788,"04OR","small_airport","Collins Landing Strip",44.7499008179,-120.200996399,1500,"NA","US","US-OR","Mitchell","no","04OR",,"04OR",,,
6789,"04PA","heliport","S & C Distribution Center Heliport",39.87929916379999,-75.2287979126,50,"NA","US","US-PA","Philadelphia","no","04PA",,"04PA",,,
6790,"04PN","heliport","Strawbridge & Clothier Exton Heliport",40.0306619,-75.63021,320,"NA","US","US-PA","Exton","no","04PN",,"04PN",,,
6791,"04SC","heliport","Emergency Helipad",34.8405990601,-82.60690307620001,994,"NA","US","US-SC","Easley","no","04SC",,"04SC",,,
6792,"04TA","heliport","Capitol National Bank Building Heliport",30.271041666699997,-97.7446975708,540,"NA","US","US-TX","Austin","no","04TA",,"04TA",,,
6793,"04TE","heliport","Veterans Affairs Medical Center Heliport",29.700199127199998,-95.38739776610001,49,"NA","US","US-TX","Houston","no","04TE",,"04TE",,,
6794,"04TN","small_airport","Hensley Airpark",36.183300018299995,-82.67890167239999,1430,"NA","US","US-TN","Chuckey","no","04TN",,"04TN",,,
6795,"04TS","heliport","Hummingbird Heliport",30.553499221800003,-97.60610198970001,690,"NA","US","US-TX","Hutto","no","04TS",,"04TS",,,
6796,"04TX","small_airport","Pocock Airport",31.7322006226,-97.36889648440001,565,"NA","US","US-TX","China Spring","no","04TX",,"04TX",,,
6797,"04UT","small_airport","Navajo Mountain Airport",37.0083007812,-110.794998169,6160,"NA","US","US-UT","Navajo Mountain Trdng Post","no","04UT",,"04UT",,,
6798,"04V","small_airport","Saguache Municipal Airport",38.0990833,-106.1743889,7826,"NA","US","US-CO","Saguache","no","04V",,"04V",,,
6799,"04VA","heliport","Russell County Medical Center Heliport",36.898,-82.078,2004,"NA","US","US-VA","Lebanon","yes","04VA",,"04VA",,,
6800,"04VG","small_airport","Manquin Flight Park Ultralightport",37.7144012451,-77.21179962160001,50,"NA","US","US-VA","Manquin","no","04VG",,"04VG",,,
6801,"04VT","small_airport","Lightning Bolt Field Airport",44.4011001587,-72.26360321039999,2156,"NA","US","US-VT","Cabot","no","04VT",,"04VT",,,
6802,"04W","small_airport","Field of Dreams Airport",46.0228004456,-92.895401001,1021,"NA","US","US-MN","Hinckley","no","04W",,"04W",,,
6803,"04WA","small_airport","Ox Meadows Airport",47.5817985535,-117.43699646,2345,"NA","US","US-WA","Spokane","no","04WA",,"04WA",,,
6804,"04WI","small_airport","Dutch Gap Airstrip",42.523399353,-88.0167007446,760,"NA","US","US-WI","Bristol","no","04WI",,"04WI",,,
45903,"04WN","small_airport","Stillwater Creek Airport",46.963889,-119.641667,1510,"NA","US","US-WA","Royal City","no","04WN",,"04WN",,,
6805,"04WV","heliport","West Virginia Univ. Hosp. Inc. Gnd. Pad #2 Heliport",39.6536111111,-79.9561111111,1137,"NA","US","US-WV","Morgantown","no","04WV",,"04WV",,,
6806,"04XS","heliport","Napiers Heliport",32.5820999146,-97.1425018311,625,"NA","US","US-TX","Mansfield","no","04XS",,"04XS",,,
6807,"05AK","small_airport","Wasilla Creek Airpark",61.66830063,-149.1880035,620,"NA","US","US-AK","Palmer","yes","05AK",,"05AK",,,
6808,"05AL","heliport","Allen Stagefield Army Heliport",31.2311992645,-85.64969635010002,365,"NA","US","US-AL","Fort Rucker/Wicksburg","no","05AL",,"05AL",,,
45302,"05AR","small_airport","Ozark Skies Airpark",36.000633,-93.57025,1900,"NA","US","US-AR","Kingston","no","05AR",,"05AR",,,
6809,"05AZ","heliport","Yuma Regional Medical Center Heliport",32.682800293,-114.634002686,200,"NA","US","US-AZ","Yuma","no","05AZ",,"05AZ",,,
6810,"05B","seaplane_base","Van Buren Seaplane Base",47.15890121459999,-67.9319992065,440,"NA","US","US-ME","Van Buren","no","05B",,"05B",,,
6811,"05CA","heliport","Lost Hills Sheriff's Station Heliport",34.137798309299995,-118.713996887,888,"NA","US","US-CA","Calabasas","no","05CA",,"05CA",,,
6812,"05CL","small_airport","Pope Valley Airport",38.6106987,-122.39099884,618,"NA","US","US-CA","Pope Valley","no","05CL",,"05CL",,,
6813,"05CO","small_airport","Rancho De Aereo Airport",40.2149839,-104.9844228,4978,"NA","US","US-CO","Mead","yes","05CO",,"05CO",,,
6814,"05CT","heliport","O And G Heliport",41.7737007141,-73.1162033081,600,"NA","US","US-CT","Torrington","no","05CT",,"05CT",,,
6815,"05FA","small_airport","Melanie's Airport",30.918899536132812,-86.21829986572266,295,"NA","US","US-FL","Florala","no","05FA",,"05FA",,,
6816,"05FD","heliport","Aventura Heliport",25.960899353027344,-80.13919830322266,6,"NA","US","US-FL","North Miami Beach","no","05FD",,"05FD",,,
6817,"05FL","small_airport","Charlton Strip",26.523099899291992,-81.4083023071289,36,"NA","US","US-FL","La Belle","no","05FL",,"05FL",,,
6818,"05GA","small_airport","Raju Airport",32.0713996887207,-84.71440124511719,625,"NA","US","US-GA","Richland","no","05GA",,"05GA",,,
6819,"05IA","small_airport","Spotts Field",43.13750076293945,-93.06829833984375,1155,"NA","US","US-IA","Nora Springs","no","05IA",,"05IA",,,
6820,"05ID","small_airport","Running Creek Ranch Airport",45.914100646972656,-114.83599853515625,2969,"NA","US","US-ID","Grangeville","no","05ID",,"05ID",,,
6821,"05II","small_airport","Reichhart Airport",41.02870178222656,-84.99720001220703,795,"NA","US","US-IN","New Haven","no","05II",,"05II",,,
6822,"05IL","small_airport","Classic Landings Airport",41.156700134277344,-88.0167007446289,635,"NA","US","US-IL","Bonfield","no","05IL",,"05IL",,,
6823,"05IN","small_airport","Cooper Airport",39.641998291015625,-86.50420379638672,860,"NA","US","US-IN","Belleville","no","05IN",,"05IN",,,
6824,"05IS","small_airport","Hardy Airport",39.72589874267578,-89.26399993896484,605,"NA","US","US-IL","Mount Auburn","no","05IS",,"05IS",,,
6825,"05KS","small_airport","Darbro Field",37.26620101928711,-95.95919799804688,945,"NA","US","US-KS","Elk City","no","05KS",,"05KS",,,
6826,"05KY","small_airport","Cartersville Airport",37.53689957,-84.40720367,1070,"NA","US","US-KY","Berea","no","05KY",,"05KY",,,
6827,"05LA","small_airport","Greg's Flying Service Airport",32.26530075073242,-91.69779968261719,76,"NA","US","US-LA","Baskin","no","05LA",,"05LA",,,
6828,"05LL","heliport","Midwest Heliport",41.7489013671875,-87.93509674072266,710,"NA","US","US-IL","Willowbrook","no","05LL",,"05LL",,,
6829,"05LS","small_airport","Grass Roots Airport",31.252199172973633,-92.47579956054688,83,"NA","US","US-LA","Alexandria","no","05LS",,"05LS",,,
6830,"05M","heliport","Pauls Valley General Hospital Heliport",34.71969985961914,-97.21399688720703,911,"NA","US","US-OK","Pauls Valley","no","05M",,"05M",,,
6831,"05MA","heliport","Bentley Heliport",42.691200256347656,-70.91230010986328,80,"NA","US","US-MA","Ipswich","no","05MA",,"05MA",,,
6832,"05MD","small_airport","Breezecroft Airport",39.250099182128906,-76.2052001953125,20,"NA","US","US-MD","Chestertown","no","05MD",,"05MD",,,
6833,"05ME","small_airport","Drisko Airport",44.65700149536133,-67.55919647216797,70,"NA","US","US-ME","Jonesboro","no","05ME",,"05ME",,,
6834,"05MO","heliport","Portageville Community Heliport",36.4297981262207,-89.68009948730469,272,"NA","US","US-MO","Portageville","no","05MO",,"05MO",,,
6835,"05MS","heliport","Va Medical Center Jackson Heliport",32.31890106201172,-90.16809844970703,359,"NA","US","US-MS","Jackson","no","05MS",,"05MS",,,
6836,"05NC","heliport","Brunswick Community Hospital Heliport",34.00809860229492,-78.29109954833984,63,"NA","US","US-NC","Supply","no","05NC",,"05NC",,,
6837,"05NE","small_airport","Mc Kay Airport",41.7221984863,-98.3089981079,2010,"NA","US","US-NE","Spalding","no","05NE",,"05NE",,,
6838,"05NH","heliport","Stumpfield Heliport",42.92390060424805,-70.95140075683594,200,"NA","US","US-NH","Kensington","no","05NH",,"05NH",,,
6839,"05NJ","heliport","Paulus Hook Pier Heliport",40.7140007019043,-74.03150177001953,7,"NA","US","US-NJ","Jersey City","no","05NJ",,"05NJ",,,
6840,"05NY","heliport","Oswego County At Pulaski Heliport",43.551998138427734,-76.09020233154297,445,"NA","US","US-NY","Pulaski","no","05NY",,"05NY",,,
6841,"05OI","small_airport","Dorlon Airpark",41.28839874267578,-81.96260070800781,830,"NA","US","US-OH","Columbia Station","no","05OI",,"05OI",,,
6842,"05OK","small_airport","Hawk Haven Airport",35.85340118408203,-97.56749725341797,1075,"NA","US","US-OK","Crescent","no","05OK",,"05OK",,,
6843,"05OR","small_airport","Peacock Ranch Airport",45.44150161743164,-117.35099792480469,3500,"NA","US","US-OR","Enterprise","no","05OR",,"05OR",,,
6844,"05PA","heliport","Philadelphia Market Street Heliport",39.95479965209961,-75.1781997680664,110,"NA","US","US-PA","Philadelphia","no","05PA",,"05PA",,,
6845,"05PN","heliport","State Police Area Iii Heliport",40.30009841918945,-76.85800170898438,485,"NA","US","US-PA","Harrisburg","no","05PN",,"05PN",,,
6846,"05PS","small_airport","Mills Brothers Airport",40.142799377441406,-77.86190032958984,1210,"NA","US","US-PA","Burnt Cabins","no","05PS",,"05PS",,,
6847,"05S","small_airport","Vernonia Airfield",45.85150146484375,-123.24199676513672,647,"NA","US","US-OR","Vernonia","no","05S",,"05S",,"http://en.wikipedia.org/wiki/Vernonia_Airfield",
6848,"05TA","small_airport","Brandes Air Field",29.809099197387695,-96.26509857177734,276,"NA","US","US-TX","Sealy","no","05TA",,"05TA",,,
6849,"05TE","small_airport","Hilde-Griff Field",30.72209930419922,-97.79139709472656,950,"NA","US","US-TX","Georgetown","no","05TE",,"05TE",,,
6850,"05TN","closed","Thurmond Glenn Field",35.55699920654297,-89.55290222167969,285,"NA","US","US-TN","Covington","no","05TN",,"05TN",,,
6851,"05TS","small_airport","Dew Drop Airport",33.12929916381836,-97.35859680175781,750,"NA","US","US-TX","Justin","no","05TS",,"05TS",,,
6852,"05TX","small_airport","Circle 'A' Ranch Airport",32.12919998168945,-97.4041976928711,608,"NA","US","US-TX","Blum","no","05TX",,"05TX",,,
6853,"05UT","small_airport","Oljato Airport",37.03329849243164,-110.31700134277344,4838,"NA","US","US-UT","Oljato","no","05UT",,"05UT",,,
6854,"05V","small_airport","Blanca Airport",37.41109848022461,-105.552001953125,7720,"NA","US","US-CO","Blanca","no","05V",,"05V",,,
6855,"05VA","small_airport","Providence Airport",37.22420120239258,-78.4186019897461,445,"NA","US","US-VA","Farmville","no","05VA",,"05VA",,,
6856,"05VT","heliport","Port of Highgate Springs Heliport",45.013301849365234,-73.08670043945312,68,"NA","US","US-VT","Highgate Springs","no","05VT",,"05VT",,,
6857,"05WA","heliport","Sacred Heart Medical Center Helistop",47.64820098876953,-117.41400146484375,2220,"NA","US","US-WA","Spokane","no","05WA",,"05WA",,,
6858,"05WI","small_airport","Ames Private Airport",42.651100158691406,-88.74590301513672,958,"NA","US","US-WI","Darien","no","05WI",,"05WI",,,
45907,"05WN","small_airport","Flat Creek Field",48.702222,-118.0475,1570,"NA","US","US-WA","Kettle Falls","no","05WN",,"05WN",,,
6859,"05XS","small_airport","Johnson Memorial Airport",33.07929992675781,-91.54319763183594,105,"NA","US","US-AR","Wilmot","no","05XS",,"05XS",,,
6860,"05Y","small_airport","Henning Municipal Airport",46.30379867553711,-95.43949890136719,1455,"NA","US","US-MN","Henning","no","05Y",,"05Y",,,
45272,"06AK","small_airport","June Lake Airpark",61.627619,-149.575331,425,"NA","US","US-AK","Wasilla","no","06AK",,"06AK",,,
6861,"06AL","heliport","Brown Stagefield Army Heliport",31.388399124145508,-85.97239685058594,415,"NA","US","US-AL","Fort Rucker/New Brockton","no","06AL",,"06AL",,,
6862,"06AR","small_airport","Bondair Airport",35.544498443603516,-92.18489837646484,499,"NA","US","US-AR","Higden","no","06AR",,"06AR",,,
6863,"06AZ","heliport","Mercy Gilbert Medical Center Heliport",33.28580093383789,-111.75299835205078,1280,"NA","US","US-AZ","Gilbert","no","06AZ",,"06AZ",,,
6864,"06B","seaplane_base","Lucky Landing Marina and Seaplane Base",44.907001495399996,-68.8050003052,115,"NA","US","US-ME","Bangor","no","06B",,"06B",,,
6865,"06CA","heliport","Sce Solar I Heliport",34.87080001831055,-116.83399963378906,1942,"NA","US","US-CA","Yermo","no","06CA",,"06CA",,,
6866,"06CL","heliport","Abc7-Tv Heliport",35.15719985961914,-118.28900146484375,520,"NA","US","US-CA","Glendale","no","06CL",,"06CL",,,
6867,"06CO","small_airport","Jecan Airport",37.38750076293945,-103.69100189208984,5100,"NA","US","US-CO","Branson","no","06CO",,"06CO",,,
6868,"06FA","small_airport","William P Gwinn Airport",26.90839958190918,-80.32890319824219,28,"NA","US","US-FL","Jupiter","no","06FA",,"06FA",,"http://en.wikipedia.org/wiki/North_Palm_Beach_County_General_Aviation_Airport",
6869,"06FD","small_airport","Grass Roots Airpark",28.641700744628906,-81.88500213623047,105,"NA","US","US-FL","Mascotte","no","06FD",,"06FD",,,
6870,"06FL","heliport","Morton Plant Hospital Heliport",27.953399658203125,-82.8042984008789,3,"NA","US","US-FL","Clearwater","no","06FL",,"06FL",,,
6871,"06GA","heliport","Smith Heliport",33.75339889526367,-84.16210174560547,1065,"NA","US","US-GA","Redan","no","06GA",,"06GA",,,
6872,"06I","seaplane_base","Patoka Reservoir Landing Area Seaplane Base",38.43339920043945,-86.69110107421875,536,"NA","US","US-IN","French Lick","no","06I",,"06I",,,
6873,"06IA","small_airport","Rich Field",41.841400146484375,-91.83429718017578,880,"NA","US","US-IA","Walford","no","06IA",,"06IA",,,
6874,"06ID","small_airport","Larkin Airport",43.46269989013672,-116.35900115966797,2750,"NA","US","US-ID","Kuna","no","06ID",,"06ID",,,
6875,"06IL","small_airport","Humm Airport",41.5994987487793,-88.86990356445312,708,"NA","US","US-IL","Earlville","no","06IL",,"06IL",,,
6876,"06IN","small_airport","Ellis Fly-In Airport",39.282798767089844,-87.30359649658203,575,"NA","US","US-IN","Blackhawk","no","06IN",,"06IN",,,
6877,"06IS","small_airport","Sinele Strip",40.5463981628418,-91.27429962158203,695,"NA","US","US-IL","Nauvoo","no","06IS",,"06IS",,,
6878,"06KS","heliport","Riverside Hospital Airlift Heliport",37.69580078125,-97.37249755859375,1332,"NA","US","US-KS","Wichita","no","06KS",,"06KS",,,
6879,"06KY","heliport","Falcon Heliport",37.525901794433594,-83.34519958496094,751,"NA","US","US-KY","Jackson","no","06KY",,"06KY",,,
6880,"06LA","heliport","Panther Helicopters Inc Heliport",29.84600067138672,-90.02780151367188,,"NA","US","US-LA","Belle Chasse","no","06LA",,"06LA",,,
6881,"06LL","heliport","Hammersmith Heliport",41.873600006103516,-88.49690246582031,812,"NA","US","US-IL","Elburn","no","06LL",,"06LL",,,
6882,"06LS","heliport","Tembec Heliport",30.70789909362793,-91.32019805908203,85,"NA","US","US-LA","St Francisville","no","06LS",,"06LS",,,
6883,"06MA","heliport","The Barn Heliport",42.69060134887695,-71.60900115966797,210,"NA","US","US-MA","Pepperell","no","06MA",,"06MA",,,
6884,"06MD","heliport","Bayview Heliport",39.29140090942383,-76.54630279541016,132,"NA","US","US-MD","Baltimore","no","06MD",,"06MD",,,
6885,"06MI","heliport","W A Foote Memorial Hospital Heliport",42.2510986328125,-84.39140319824219,978,"NA","US","US-MI","Jackson","no","06MI",,"06MI",,,
6886,"06MN","small_airport","Pike Field Airport",47.6519012451,-92.41670227050001,1463,"NA","US","US-MN","Virginia","no","06MN",,"06MN",,,
6887,"06MO","small_airport","Noahs Ark Airport",39.23059844970703,-94.80439758300781,755,"NA","US","US-MO","Waldron","no","06MO",,"06MO",,,
6888,"06MT","small_airport","Torgerson Airport",48.55830001831055,-112.10900115966797,3541,"NA","US","US-MT","Ethridge","no","06MT",,"06MT",,,
6889,"06N","small_airport","Randall Airport",41.43199920654297,-74.3916015625,523,"NA","US","US-NY","Middletown","no","06N",,"06N",,,
6890,"06NC","small_airport","Tailwinds Airport",34.82749938964844,-78.9302978515625,163,"NA","US","US-NC","St. Pauls","no","06NC",,"06NC",,,
6891,"06ND","small_airport","Fitterer's Strip",46.7489013671875,-101.66899871826172,2180,"NA","US","US-ND","Glen Ullin","no","06ND",,"06ND",,,
6892,"06NE","heliport","St Marys Hospital Heliport",40.68000030517578,-95.86170196533203,1015,"NA","US","US-NE","Nebraska City","no","06NE",,"06NE",,,
6893,"06NH","small_airport","Cole Farm Airport",42.92839813232422,-70.97309875488281,160,"NA","US","US-NH","Kensington","no","06NH",,"06NH",,,
6894,"06NJ","heliport","Chemical Bank - New Jersey Na Heliport",39.9500999451,-74.9996032715,25,"NA","US","US-NJ","Moorestown","no","06NJ",,"06NJ",,,
6895,"06NY","small_airport","Murphy Field",42.84280014038086,-76.44529724121094,1100,"NA","US","US-NY","Auburn","no","06NY",,"06NY",,,
6896,"06O1","heliport","Saint Elizabeth Medical Center Heliport",41.11479949951172,-80.65699768066406,1020,"NA","US","US-OH","Youngstown","no","06O1",,"06O1",,,
6897,"06OH","small_airport","Hal Joy Airfield",41.50979995727539,-80.59120178222656,1160,"NA","US","US-OH","Williamsfield","no","06OH",,"06OH",,,
6898,"06OI","small_airport","Green Acres Airport",39.734798431396484,-84.3822021484375,915,"NA","US","US-OH","New Lebanon","no","06OI",,"06OI",,,
6899,"06OK","heliport","Albert Lodge Heliport",36.54169845581055,-94.83360290527344,900,"NA","US","US-OK","Grove","no","06OK",,"06OK",,,
6900,"06OR","small_airport","Hayden Mountain Airport",45.4650993347168,-123.08000183105469,850,"NA","US","US-OR","Forest Grove","no","06OR",,"06OR",,,
6901,"06PA","small_airport","Freefall Oz Airport",42.008399963378906,-78.25810241699219,1440,"NA","US","US-PA","Ceres","no","06PA",,"06PA",,,
45764,"06PN","heliport","Schiavoni Heliport",40.382733,-76.772533,727,"NA","US","US-PA","Harrisburg","no","06PN",,"06PN",,,
6902,"06PS","heliport","Cherokee Island Castle Heliport",40.40230178833008,-79.92130279541016,760,"NA","US","US-PA","West Homestead","no","06PS",,"06PS",,,
6903,"06R","small_airport","Grawunder Field",29.9419002532959,-96.24610137939453,289,"NA","US","US-TX","Bellville","no","06R",,"06R",,,
6904,"06SN","small_airport","Beyer Farm Airport",37.583900451660156,-97.25309753417969,1340,"NA","US","US-KS","Derby","no","06SN",,"06SN",,,
6905,"06TA","small_airport","Glaser Field",30.90850067138672,-97.11689758300781,480,"NA","US","US-TX","Buckholts","no","06TA",,"06TA",,,
6906,"06TE","small_airport","Ainsworth Airport",30.312700271606445,-95.02690124511719,129,"NA","US","US-TX","Cleveland","no","06TE",,"06TE",,,
6907,"06TN","small_airport","Hunter STOLport",35.69729995727539,-86.95690155029297,640,"NA","US","US-TN","Columbia","no","06TN",,"06TN",,,
6908,"06TS","small_airport","Roscoe Mc Connico Airport",32.12070083618164,-96.1791000366211,350,"NA","US","US-TX","Kerens","no","06TS",,"06TS",,,
6909,"06TX","small_airport","Diamond N Ranch Airport",30.057600021362305,-95.81289672851562,215,"NA","US","US-TX","Hockley","no","06TX",,"06TX",,,
6910,"06VA","small_airport","Mount Horeb Field",38.249000549316406,-78.85530090332031,1160,"NA","US","US-VA","Grottoes","no","06VA",,"06VA",,,
6911,"06WA","heliport","N A Degerstrom Yard Heliport",47.68629837036133,-117.197998046875,2013,"NA","US","US-WA","Spokane","no","06WA",,"06WA",,,
6912,"06WI","small_airport","Young Private Airport",45.66270065307617,-92.45020294189453,1075,"NA","US","US-WI","Frederic","no","06WI",,"06WI",,,
15372,"06WN","small_airport","Western Airpark",46.92499923706055,-122.5530014038086,394,"NA","US","US-WA","Yelm","no","06WN",,"06WN",,,"Formerly 92W"
6913,"06XS","small_airport","Campbell Field",33.32469940185547,-97.04419708251953,546,"NA","US","US-TX","Aubrey","no","06XS",,"06XS",,,
6914,"06Y","small_airport","Herman Municipal Airport",45.83000183105469,-96.16059875488281,1068,"NA","US","US-MN","Herman","no","06Y",,"06Y",,,
6915,"07AL","heliport","Tac X Stagefield Army Heliport",31.125200271606445,-85.9791030883789,132,"NA","US","US-AL","Fort Rucker/Samson","no","07AL",,"07AL",,,
6916,"07AR","small_airport","Morrilton Airport",35.19449996948242,-92.80020141601562,300,"NA","US","US-AR","Morrilton","no","07AR",,"07AR",,,
6917,"07AZ","closed","John C Lincoln Hospital Heliport",33.56669998168945,-112.06900024414062,1255,"NA","US","US-AZ","Phoenix","no","07AZ",,"07AZ",,,
6918,"07B","small_airport","Blue Hill Airport",44.448001861572266,-68.5697021484375,360,"NA","US","US-ME","Blue Hill","no","07B",,"07B",,,
6919,"07CA","heliport","West Side Hospital Heliport",35.13890075683594,-119.45099639892578,850,"NA","US","US-CA","Taft","no","07CA",,"07CA",,,
6920,"07CL","small_airport","Richvale Airport",39.49769973754883,-121.77100372314453,100,"NA","US","US-CA","Richvale","no","07CL",,"07CL",,,
6921,"07CO","small_airport","Comanche Creek Airport",39.26359939575195,-104.427001953125,6620,"NA","US","US-CO","Kiowa","no","07CO",,"07CO",,,
6922,"07CT","closed","Tnt Heliport",41.45289993286133,-72.24960327148438,430,"NA","US","US-CT","Salem","no","07CT",,"07CT",,,
6923,"07D","small_airport","Tackaberry Airport",43.06449890136719,-82.72380065917969,764,"NA","US","US-MI","Avoca","no","07D",,"07D",,,
6924,"07FA","small_airport","Ocean Reef Club Airport",25.325399398804,-80.274803161621,8,"NA","US","US-FL","Key Largo","no","07FA","OCA","07FA","https://www.oceanreef.com/community/private-airport-1345.html","https://en.wikipedia.org/wiki/Ocean_Reef_Club_Airport",
6925,"07FD","small_airport","Flying G Ranch STOLport",30.417999267578125,-83.28379821777344,90,"NA","US","US-FL","Lee","no","07FD",,"07FD",,,
6926,"07FL","heliport","Southwest Florida Regional Medical Center Heliport",26.60540008544922,-81.8594970703125,18,"NA","US","US-FL","Fort Myers","no","07FL",,"07FL",,,
6927,"07GA","small_airport","Alcovy Airport",33.67499923706055,-83.76309967041016,750,"NA","US","US-GA","Covington","no","07GA",,"07GA",,,
6928,"07I","seaplane_base","Lake Monroe Seaplane Base",39.05870056152344,-86.44609832763672,538,"NA","US","US-IN","Bloomington","no","07I",,"07I",,,
6929,"07ID","small_airport","Interstate Airport",42.2781982421875,-113.30500030517578,4580,"NA","US","US-ID","Malta","no","07ID",,"07ID",,,
6930,"07II","heliport","St Vincent Jennings Hospital Heliport",39.01060104370117,-85.64080047607422,740,"NA","US","US-IN","North Vernon","no","07II",,"07II",,,
6931,"07IN","small_airport","Gray Airport",39.573699951171875,-85.91390228271484,750,"NA","US","US-IN","Boggstown","no","07IN",,"07IN",,,
6932,"07K","small_airport","Central City Municipal - Larry Reineke Field",41.1125984192,-98.0516967773,1717,"NA","US","US-NE","Central City","no","07K",,"07K",,,
6933,"07KS","small_airport","Heape Field",37.73419952392578,-96.93669891357422,1321,"NA","US","US-KS","Augusta","no","07KS",,"07KS",,,
6934,"07KY","small_airport","Blue Lick Airport",38.08060073852539,-85.69329833984375,532,"NA","US","US-KY","Louisville","no","07KY",,"07KY",,,
6935,"07LA","heliport","Air Oil Inc Nr 1 Heliport",29.93709945678711,-90.18370056152344,,"NA","US","US-LA","Harahan","no","07LA",,"07LA",,,
6936,"07LS","heliport","LA State Police Troop F Heliport",32.518100738499996,-91.9889984131,80,"NA","US","US-LA","Monroe","no","07LS",,"07LS",,,
6937,"07MA","heliport","West Pond Heliport",41.91699981689453,-70.70950317382812,149,"NA","US","US-MA","Plymouth","no","07MA",,"07MA",,,
6938,"07MD","small_airport","Baugher's Orchard Airport",39.608299255371094,-77.0519027709961,700,"NA","US","US-MD","Westminster","no","07MD",,"07MD",,,
6939,"07ME","heliport","Westbrook Heliport",43.73830032348633,-70.33920288085938,250,"NA","US","US-ME","Westbrook","no","07ME",,"07ME",,,
6940,"07MI","small_airport","Scott Airstrip",43.864200592041016,-85.0239028930664,1065,"NA","US","US-MI","Lake","no","07MI",,"07MI",,,
6941,"07MN","small_airport","Dairyview Airport",44.05500030517578,-95.90950012207031,1680,"NA","US","US-MN","Hadley","no","07MN",,"07MN",,,
6942,"07MO","small_airport","Lake Sexton Airport",38.650001525878906,-93.61689758300781,880,"NA","US","US-MO","Warrensburg","no","07MO",,"07MO",,,
6943,"07MT","small_airport","Glasgow Industrial Airport",48.42110061645508,-106.52799987792969,2762,"NA","US","US-MT","Glasgow","no","07MT",,"07MT",,,
6944,"07N","small_airport","Bermudian Valley Airpark",40.01679992675781,-77.00389862060547,470,"NA","US","US-PA","Kralltown","no","07N",,"07N",,,
6945,"07NC","small_airport","Hawks Meadow Airport",34.83319854736328,-80.7511978149414,625,"NA","US","US-NC","Waxhaw","no","07NC",,"07NC",,,
6946,"07NH","seaplane_base","Diving Rock Seaplane Base",43.17559814453125,-72.06390380859375,1404,"NA","US","US-NH","Washington","no","07NH",,"07NH",,,
6947,"07NJ","heliport","Palisades General Hospital Heliport",40.79180145263672,-73.99539947509766,10,"NA","US","US-NJ","North Bergen","no","07NJ",,"07NJ",,,
6948,"07NY","heliport","Mmc Heliport",42.66640090942383,-74.76499938964844,1320,"NA","US","US-NY","Monticello","no","07NY",,"07NY",,,
6949,"07OH","heliport","Tennessee Gas Heliport",39.93730163574219,-81.68350219726562,1025,"NA","US","US-OH","Claysville","no","07OH",,"07OH",,,
6950,"07OK","small_airport","Pleasant Valley Airport",34.633399963378906,-99.03369903564453,1322,"NA","US","US-OK","Snyder","no","07OK",,"07OK",,,
6951,"07OR","small_airport","Bruce's Airport",45.42179870605469,-122.62000274658203,250,"NA","US","US-OR","Milwaukie","no","07OR",,"07OR",,,
45747,"07PN","small_airport","Folmar Airport",40.998889,-78.125278,1690,"NA","US","US-PA","Grassflat","no","07PN",,"07PN",,,
6952,"07SN","small_airport","Churchill Airport",39.77280044555664,-99.36009979248047,1965,"NA","US","US-KS","Phillipsburg","no","07SN",,"07SN",,,
6953,"07TA","small_airport","Salaika Aviation Airport",29.24049949645996,-95.3447036743164,30,"NA","US","US-TX","Danbury","no","07TA",,"07TA",,,
6954,"07TE","small_airport","Cuddihy Field",27.721099853515625,-97.51280212402344,39,"NA","US","US-TX","Corpus Christi","no","07TE",,"07TE",,,
6955,"07TN","small_airport","Corntassel Airport",35.568599700927734,-84.24109649658203,970,"NA","US","US-TN","Vonore","no","07TN",,"07TN",,,
6956,"07TS","small_airport","Cross-Country Estates Airport",30.625,-97.57279968261719,690,"NA","US","US-TX","Georgetown","no","07TS",,"07TS",,,
6957,"07TX","heliport","Pecks Heliport",33.183998107910156,-96.447998046875,660,"NA","US","US-TX","Princeton","no","07TX",,"07TX",,,
310114,"07UT","small_airport","ATK/Thiokol Airport",41.7166667,-112.4472222,4480,"NA","US","US-UT","Howell","no","07UT",,"07UT",,,"UT23, Air Force Plant 78 Airfield"
6958,"07VA","small_airport","Alpha Hotel Airport",36.81959915161133,-78.78309631347656,350,"NA","US","US-VA","Clover","no","07VA",,"07VA",,,
6959,"07VT","small_airport","Meadow STOLport",44.447200775146484,-72.91470336914062,801,"NA","US","US-VT","Jericho","no","07VT",,"07VT",,,
6960,"07WA","heliport","Deaconess Medical Center Heliport",47.651798248291016,-117.42500305175781,2110,"NA","US","US-WA","Spokane","no","07WA",,"07WA",,,
6961,"07WI","small_airport","Bartell Strip",42.965301513671875,-88.3915023803711,990,"NA","US","US-WI","Genessee Depot","no","07WI",,"07WI",,,
6962,"07XS","heliport","Allen Ponderosa Heliport",32.542198181152344,-97.3917007446289,840,"NA","US","US-TX","Crowley","no","07XS",,"07XS",,,
6963,"07Y","small_airport","Hill City-Quadna Mountain Airport",46.955501556396484,-93.5969009399414,1289,"NA","US","US-MN","Hill City","no","07Y",,"07Y",,,
45248,"08AK","small_airport","Fisher Airport",61.569639,-149.724439,200,"NA","US","US-AK","Big Lake","no","08AK",,"08AK",,,
6964,"08AR","heliport","Crittenden Regional Hospital Heliport",35.141944,-90.19,206,"NA","US","US-AR","West Memphis","no","08AR",,"08AR",,,
6965,"08AZ","heliport","Mesa Police Heliport",33.41740036010742,-111.83699798583984,1240,"NA","US","US-AZ","Mesa","no","08AZ",,"08AZ",,,
6966,"08B","small_airport","Merrymeeting Field",44,-69.88710021972656,65,"NA","US","US-ME","Bowdoinham","no","08B",,"08B",,,
6967,"08CA","heliport","Pg & E Co. Placerville Svc Center Heliport",38.69490051269531,-120.8270034790039,1810,"NA","US","US-CA","Diamond Springs","no","08CA",,"08CA",,,
6968,"08CL","small_airport","Kistler Ranch Airport",37.85960006713867,-120.55400085449219,1025,"NA","US","US-CA","Jamestown","no","08CL",,"08CL",,,
45316,"08CN","heliport","Tulare Motor Sports #1 Heliport",36.172031,-119.306181,270,"NA","US","US-CA","Tulare","no","08CN",,"08CN",,,
6969,"08CO","small_airport","Terra Firma Airport",38.73249816894531,-104.04100036621094,5600,"NA","US","US-CO","Rush","no","08CO",,"08CO",,,
6970,"08CT","seaplane_base","Seavair's Landing Seaplane Base",41.895999908447266,-73.09310150146484,881,"NA","US","US-CT","Winsted","no","08CT",,"08CT",,,
6971,"08F","small_airport","City of Coalgate Airport",34.53179931640625,-96.23310089111328,615,"NA","US","US-OK","Coalgate","no","08F",,"08F",,,
6972,"08FA","small_airport","Duda Airstrip",26.57979965209961,-81.48370361328125,35,"NA","US","US-FL","La Belle","no","08FA",,"08FA",,,
6973,"08FD","small_airport","Sunniland Ranch Airport",27.363100051879883,-80.77279663085938,65,"NA","US","US-FL","Okeechobee","no","08FD",,"08FD",,,
6974,"08FL","small_airport","J. H. Hendrie Farms Airport",27.08449935913086,-81.32869720458984,103,"NA","US","US-FL","Lake Placid","no","08FL",,"08FL",,,
6975,"08G","heliport","Salt Fork Lodge Heliport",40.11090087890625,-81.52619934082031,960,"NA","US","US-OH","Cambridge","no","08G",,"08G",,,
6976,"08GA","small_airport","Sapelo Island Airport",31.425800323486328,-81.28589630126953,12,"NA","US","US-GA","Darien","no","08GA",,"08GA",,,
6977,"08ID","small_airport","Symms Airport",43.56930160522461,-116.7770004272461,2680,"NA","US","US-ID","Marsing","no","08ID",,"08ID",,,
6978,"08II","heliport","Lagrange Hospital Heliport",41.64590072631836,-85.42639923095703,943,"NA","US","US-IN","Lagrange","no","08II",,"08II",,,
6979,"08IL","small_airport","Harms Airstrip",41.57699966430664,-89.79399871826172,643,"NA","US","US-IL","Tampico","no","08IL",,"08IL",,,
45416,"08IN","seaplane_base","Winona Lake Seaplane Base",41.223056,-85.830556,812,"NA","US","US-IN","Winona Lake","no","02D",,"02D",,,"08IN"
6980,"08IS","small_airport","Hemmer RLA Restricted Landing Area",37.977798461899994,-89.20290374759999,400,"NA","US","US-IL","Du Quoin","no","08IS",,"08IS",,,
6981,"08KS","small_airport","Alderson Airport",39.034698486328125,-97.58000183105469,1250,"NA","US","US-KS","Bennington","no","08KS",,"08KS",,,
6982,"08KY","small_airport","Boss Airport",36.972599029541016,-84.6260986328125,820,"NA","US","US-KY","Burnside","no","08KY",,"08KY",,,
6983,"08LA","heliport","Air Oil Inc Nr 2 Heliport",29.952999114990234,-90.18260192871094,4,"NA","US","US-LA","Harahan","no","08LA",,"08LA",,,
6984,"08LL","small_airport","Sauer Airport",41.07529830932617,-88.48919677734375,665,"NA","US","US-IL","Dwight","no","08LL",,"08LL",,,
6985,"08LS","small_airport","Aeleron Airport",30.403600692749023,-92.02359771728516,51,"NA","US","US-LA","Grand Coteau","no","08LS",,"08LS",,,
6986,"08MA","small_airport","Wormid Airport",42.29399871826172,-71.49620056152344,360,"NA","US","US-MA","Southborough","no","08MA",,"08MA",,,
6987,"08MD","heliport","St Joseph Hospital Heliport",39.388301849365234,-76.61000061035156,470,"NA","US","US-MD","Towson","no","08MD",,"08MD",,,
6988,"08ME","small_airport","Lindbergh Airport",44.81420135498047,-70.34529876708984,554,"NA","US","US-ME","Avon","no","08ME",,"08ME",,,
6989,"08MI","heliport","Sparrow Hospital Heliport",42.73419952,-84.53659821,1019,"NA","US","US-MI","Lansing","no","08MI",,"08MI",,,
6990,"08MN","seaplane_base","Christenson Point Seaplane Base",47.66939926147461,-93.05439758300781,1372,"NA","US","US-MN","Chisholm/Hibbing","no","08MN",,"08MN",,,
6991,"08MO","small_airport","Twin Oaks Airport",37.395599365234375,-94.28379821777344,955,"NA","US","US-MO","Jasper","no","08MO",,"08MO",,,
6992,"08MS","small_airport","Williams Field",34.66220093,-89.86830139,345,"NA","US","US-MS","Coldwater","no","08MS",,"08MS",,,
6993,"08MT","small_airport","Clark Airport",47.063899993896484,-108.81700134277344,3450,"NA","US","US-MT","Grassrange","no","08MT",,"08MT",,,
6994,"08N","small_airport","Keller Brothers Airport",40.29180145263672,-76.32879638671875,550,"NA","US","US-PA","Lebanon","no","08N",,"08N",,,
6995,"08NC","small_airport","Whiteheart Farm Airport",36.06760025024414,-80.4655990600586,750,"NA","US","US-NC","Lewisville","no","08NC",,"08NC",,,
6996,"08ND","small_airport","Brecht Strip",47.32310104370117,-102.0979995727539,1990,"NA","US","US-ND","Golden Valley","no","08ND",,"08ND",,,
6997,"08NE","small_airport","Laurel Municipal Airport",42.43170166015625,-97.07949829101562,1467,"NA","US","US-NE","Laurel","no","08NE",,"08NE",,,
6998,"08NH","heliport","Memorial Hospital Heliport",44.0612983704,-71.1358032227,574,"NA","US","US-NH","North Conway","no","08NH",,"08NH",,,
6999,"08NJ","heliport","St Barnabas Medical Center Heliport",40.76259994506836,-74.30400085449219,429,"NA","US","US-NJ","Livingston","no","08NJ",,"08NJ",,,
7000,"08NY","small_airport","Md1 Airport",41.368099212646484,-74.50559997558594,650,"NA","US","US-NY","Middletown","no","08NY",,"08NY",,,
7001,"08OH","small_airport","Kenley Airport",41.29169845581055,-80.5636978149414,1230,"NA","US","US-OH","Hartford","no","08OH",,"08OH",,,
7002,"08OK","small_airport","Parks Airport",34.93149948120117,-95.25830078125,635,"NA","US","US-OK","Wilburton","no","08OK",,"08OK",,,
7003,"08OR","small_airport","Saxon Sycan Airport",42.839298248291016,-121.11699676513672,4990,"NA","US","US-OR","Silver Lake","no","08OR",,"08OR",,,
7004,"08PA","heliport","Pocono Raceway Heliport",41.05839920043945,-75.49960327148438,1812,"NA","US","US-PA","Pocono Pines","no","08PA",,"08PA",,,
7005,"08PN","heliport","Thomson Heliport",40.0458984375,-76.28079986572266,310,"NA","US","US-PA","Lancaster","no","08PN",,"08PN",,,
7006,"08R","small_airport","Richmond Airport",41.489498138427734,-71.62059783935547,130,"NA","US","US-RI","West Kingston","no","08R",,"08R",,,
7007,"08TA","heliport","Rancho Del Lago Heliport",29.951900482177734,-98.22450256347656,1208,"NA","US","US-TX","Fischer","no","08TA",,"08TA",,,
7008,"08TE","small_airport","B. J. Mc Combs Sisterdale Airport",29.9759998322,-98.743598938,1447,"NA","US","US-TX","Comfort","no","08TE",,"08TE",,,
7009,"08TS","small_airport","Puesta Del Sol Airport",26.887800216674805,-98.5072021484375,420,"NA","US","US-TX","La Gloria","no","08TS",,"08TS",,,
7010,"08TX","small_airport","Cross Wind Airport",32.85820007324219,-97.74749755859375,1040,"NA","US","US-TX","Weatherford","no","08TX",,"08TX",,,
7011,"08U","small_airport","Stevens-Crosby Airport",41.51570129394531,-115.86000061035156,6397,"NA","US","US-NV","North Fork","no","08U",,"08U",,,
7012,"08VA","small_airport","Springwood Airstrip",37.55400085449219,-79.74980163574219,1000,"NA","US","US-VA","Buchanan","no","08VA",,"08VA",,,
7013,"08WA","heliport","Manchester Laboratory Heliport",47.57429885864258,-122.5479965209961,2,"NA","US","US-WA","Manchester","no","08WA",,"08WA",,,
7014,"08WI","closed","Pierick Airport",43.04359817504883,-90.3551025390625,1225,"NA","US","US-WI","Highland","no","08WI",,"08WI",,,
7015,"08XS","small_airport","Peterson Airport",29.10810089111328,-95.77749633789062,45,"NA","US","US-TX","Old Ocean","no","08XS",,"08XS",,,
45270,"09AK","small_airport","West Beaver Airport",61.589361,-149.847333,228,"NA","US","US-AK","Big Lake","no","09AK",,"09AK",,,
7016,"09AR","heliport","Magnolia Hospital Heliport",33.27320098876953,-93.23989868164062,310,"NA","US","US-AR","Magnolia","no","09AR",,"09AR",,,
7017,"09AZ","small_airport","Stronghold Airport",31.92530059814453,-110.03800201416016,4970,"NA","US","US-AZ","St David","no","09AZ",,"09AZ",,,
7018,"09CA","heliport","Mee Memorial Hospital Heliport",36.20830154418945,-121.13200378417969,320,"NA","US","US-CA","King City","no","09CA",,"09CA",,,
7019,"09CL","small_airport","Alta Sierra Airport",39.113800048828125,-121.05699920654297,2275,"NA","US","US-CA","Grass Valley","no","09CL",,"09CL",,,
45317,"09CN","heliport","Tulare Motor Sports #2 Heliport",36.182556,-119.313572,272,"NA","US","US-CA","Tulare","no","09CN",,"09CN",,,
7020,"09CO","small_airport","Cottonwood Field",38.055599212646484,-103.65299987792969,4180,"NA","US","US-CO","Swink","no","09CO",,"09CO",,,
7021,"09FA","small_airport","Placid Lakes Airport",27.2455997467041,-81.41310119628906,130,"NA","US","US-FL","Lake Placid","no","09FA",,"09FA",,,
7022,"09FD","small_airport","Cheryl-Lane Landings Airport",28.671100616455078,-82.0873031616211,71,"NA","US","US-FL","Bushnell","no","09FD",,"09FD",,,
7023,"09FL","small_airport","Sunnybreeze Airport",27.055599212646484,-81.97059631347656,60,"NA","US","US-FL","Arcadia","no","09FL",,"09FL",,,
7024,"09GA","small_airport","Sunbelt Strip",31.111299514770508,-83.68409729003906,230,"NA","US","US-GA","Moultrie","no","09GA",,"09GA",,,
7025,"09I","seaplane_base","International Falls Seaplane Base",48.60580062866211,-93.37079620361328,1110,"NA","US","US-MN","International Falls","no","09I",,"09I",,,
7026,"09IA","small_airport","Skydive Iowa Airport",41.74580001831055,-92.4093017578125,820,"NA","US","US-IA","Brooklyn","no","09IA",,"09IA",,,
7027,"09ID","small_airport","Taylor Ranch Landing Area Airport",45.10390090942383,-114.8550033569336,3835,"NA","US","US-ID","Moscow","no","09ID",,"09ID",,,
7028,"09II","small_airport","Gibbons Field",38.44729995727539,-86.44499969482422,880,"NA","US","US-IN","Valeene","no","09II",,"09II",,,
7029,"09IL","heliport","Silver Cross Hospital Heliport",41.536399841308594,-88.05259704589844,610,"NA","US","US-IL","Joliet","no","09IL",,"09IL",,,
7030,"09IN","small_airport","Gordon Airport",41.12089920043945,-85.42500305175781,850,"NA","US","US-IN","Columbia City","no","09IN",,"09IN",,,
7031,"09IS","heliport","Swedish American Heliport",42.26499938964844,-89.07430267333984,874,"NA","US","US-IL","Rockford","no","09IS",,"09IS",,,
7032,"09KS","small_airport","Coffman Airport",38.707000732421875,-95.13829803466797,970,"NA","US","US-KS","Wellsville","no","09KS",,"09KS",,,
7033,"09KY","heliport","Baptist Hospital East Heliport",38.23899841308594,-85.63939666748047,531,"NA","US","US-KY","Louisville","no","09KY",,"09KY",,,
7034,"09LA","heliport","Era Helicopters Fourchon Helibase Heliport",29.123300552368164,-90.20169830322266,2,"NA","US","US-LA","Grand Isle","no","09LA",,"09LA",,,
7035,"09LL","small_airport","Pine Hill Airport",42.468101501464844,-88.74320220947266,1000,"NA","US","US-IL","Capron","no","09LL",,"09LL",,,
7036,"09LS","heliport","West Feliciana Sheriff's Office Heliport",30.824399948120117,-91.38459777832031,181,"NA","US","US-LA","St Francisville","no","09LS",,"09LS",,,
7037,"09MA","small_airport","Kallander Field",42.304298400878906,-71.50589752197266,403,"NA","US","US-MA","Southborough","no","09MA",,"09MA",,,
7038,"09ME","small_airport","Perrotti Skyranch Airfield",43.34080123901367,-70.85469818115234,260,"NA","US","US-ME","Berwick","no","09ME",,"09ME",,,
7039,"09MI","heliport","Michigan National Guard Headquarters Heliport",42.708099365234375,-84.56079864501953,842,"NA","US","US-MI","Lansing","no","09MI",,"09MI",,,
7040,"09MN","small_airport","W Johnson Field",44.779998779296875,-95.6635971069336,1060,"NA","US","US-MN","Hazel Run","no","09MN",,"09MN",,,
7041,"09MO","small_airport","Hogue Farm Airport",37.37839889526367,-93.36329650878906,1210,"NA","US","US-MO","Willard","no","09MO",,"09MO",,,
7042,"09N","small_airport","Airhaven Airport",41.83259963989258,-73.8759994506836,450,"NA","US","US-NY","Staatsburg","no","09N",,"09N",,,
7043,"09NC","small_airport","William Irving Lewis Airport",35.32929992675781,-79.02999877929688,310,"NA","US","US-NC","Broadway","no","09NC",,"09NC",,,
7044,"09NE","small_airport","Summer Hill Farm Airport",41.33330154418945,-96.193603515625,1250,"NA","US","US-NE","Bennington","no","09NE",,"09NE",,,
7045,"09NJ","heliport","Stonebridge Farm Helistop",40.65370178222656,-74.6865005493164,100,"NA","US","US-NJ","Somerville","no","09NJ",,"09NJ",,,
7046,"09NY","heliport","Spring Lake Fire Department Heliport",41.92890167236328,-74.04889678955078,254,"NA","US","US-NY","Kingston","no","09NY",,"09NY",,,
7047,"09OK","small_airport","Ragtime Aerodrome",36.35449981689453,-95.86389923095703,700,"NA","US","US-OK","Collinsville","no","09OK",,"09OK",,,
7048,"09OR","heliport","Mid-Columbia Medical Center Heliport",45.587235,-121.163827,487,"NA","US","US-OR","The Dalles","no","09OR",,"09OR",,"http://en.wikipedia.org/wiki/Mid-Columbia_Medical_Center_Heliport",
7049,"09PA","small_airport","Eagle Field",40.82699966430664,-77.98809814453125,1780,"NA","US","US-PA","Port Matilda","no","09PA",,"09PA",,,
7050,"09PN","heliport","Hundley Residence Heliport",40.5620002746582,-75.1427001953125,480,"NA","US","US-PA","Kintersville","no","09PN",,"09PN",,,
7051,"09S","small_airport","Sullivan Lake State Airport",48.84090042114258,-117.28399658203125,2614,"NA","US","US-WA","Metaline Falls","no","09S",,"09S",,,
14580,"09TA","small_airport","Lazy G Bar Ranch Airport",33.282100677490234,-97.49700164794922,923,"NA","US","US-TX","Decatur","no","09TA",,"09TA",,,"Formerly 82T"
7052,"09TE","small_airport","Running M Ranch Airport",32.26679992675781,-97.86699676513672,787,"NA","US","US-TX","Glen Rose","no","09TE",,"09TE",,,
7053,"09TN","heliport","Univ of Tennessee Medical Center Heliport",35.94169998168945,-83.94400024414062,924,"NA","US","US-TN","Knoxville","no","09TN",,"09TN",,,
7054,"09TS","small_airport","Pitcock Rosillos Mountain Ranch Airport",29.48240089416504,-103.16500091552734,3100,"NA","US","US-TX","Marathon","no","09TS",,"09TS",,,
7055,"09TX","small_airport","Smokey Mtn Ranch Airport",30.739099502563477,-102.02400207519531,2522,"NA","US","US-TX","Sheffield","no","09TX",,"09TX",,,
7056,"09VA","small_airport","Alum Ridge STOLport",36.97650146484375,-80.493896484375,2375,"NA","US","US-VA","Floyd","no","09VA",,"09VA",,,
7057,"09VG","heliport","Augusta Medical Center Heliport",38.09080123901367,-78.98500061035156,1390,"NA","US","US-VA","Fishersville","no","09VG",,"09VG",,,
7058,"09W","heliport","South Capitol Street Heliport",38.86869812011719,-77.00749969482422,10,"NA","US","US-DC","Washington","no","09W",,"09W",,,
7059,"09WA","heliport","Holy Family Hospital Heliport",47.71039962768555,-117.40699768066406,2081,"NA","US","US-WA","Spokane","no","09WA",,"09WA",,,
7060,"09WI","small_airport","Parkway Farm Strip",44.00360107421875,-91.30760192871094,705,"NA","US","US-WI","Holmen","no","09WI",,"09WI",,,
7061,"09XS","heliport","Baptist Medical Center Heliport",29.433000564575195,-98.49220275878906,710,"NA","US","US-TX","San Antonio","no","09XS",,"09XS",,,
7062,"09Y","seaplane_base","Wipline Seaplane Base",44.81660079956055,-93.0155029296875,687,"NA","US","US-MN","Inver Grove Hgts","no","09Y",,"09Y",,,
7063,"0AK","small_airport","Pilot Station Airport",61.934600830078125,-162.89999389648438,305,"NA","US","US-AK","Pilot Station","no","0AK",,"0AK",,,
7064,"0AK0","small_airport","Scotts Airport",64.39250183105469,-146.86199951171875,800,"NA","US","US-AK","North Pole","no","0AK0",,"0AK0",,,
7065,"0AK1","small_airport","Anderson Lake Airport",61.61690139770508,-149.32200622558594,463,"NA","US","US-AK","Wasilla","no","0AK1",,"0AK1",,,
45273,"0AK2","small_airport","Yentna Bend Strip",61.725556,-150.678611,81,"NA","US","US-AK","Willow","no","0AK2",,"0AK2",,,
7066,"0AK3","small_airport","Parker Lake Airport",62.0359001159668,-150.49400329589844,250,"NA","US","US-AK","Montana Creek","no","0AK3",,"0AK3",,,
7067,"0AK5","small_airport","Young Creek Airport",61.35649871826172,-142.73300170898438,1580,"NA","US","US-AK","May Creek","no","0AK5",,"0AK5",,,
7068,"0AK6","small_airport","Victory Airport",61.80339813232422,-147.94400024414062,1800,"NA","US","US-AK","Victory Bible Camp","no","0AK6",,"0AK6",,,
7069,"0AK7","small_airport","Bradley Lake Hydroelectri Project Airstrip",59.776100158691406,-150.95899963378906,18,"NA","US","US-AK","Homer","no","0AK7",,"0AK7",,,
7070,"0AK8","heliport","Pollux Heliport",64.89579772949219,-147.4969940185547,515,"NA","US","US-AK","North Pole","no","0AK8",,"0AK8",,,
7071,"0AK9","small_airport","Falcon Lake Strip",61.33259963989258,-150.0590057373047,110,"NA","US","US-AK","Point Mackenzie","no","0AK9",,"0AK9",,,
7072,"0AL0","heliport","Huntsville Field",34.68840026855469,-86.58889770507812,619,"NA","US","US-AL","Huntsville","no","0AL0",,"0AL0",,,
7073,"0AL1","small_airport","Resort Airport",30.443899154663086,-87.65689849853516,97,"NA","US","US-AL","Foley","no","0AL1",,"0AL1",,,
7074,"0AL2","heliport","Clay County Hospital Heliport",33.275001525878906,-85.83329772949219,1040,"NA","US","US-AL","Ashland","no","0AL2",,"0AL2",,,
7075,"0AL3","heliport","Hospital Pad Heliport",31.430599212646484,-86.94029998779297,295,"NA","US","US-AL","Evergreen","no","0AL3",,"0AL3",,,
7076,"0AL4","heliport","B.M.C. - De Kalb Heliport",34.4407997131,-85.756401062,870,"NA","US","US-AL","Fort Payne","no","0AL4",,"0AL4",,,
7077,"0AL5","small_airport","Flomaton Airport",31.03219985961914,-87.25279998779297,247,"NA","US","US-AL","Flomaton","no","0AL5",,"0AL5",,,
7078,"0AL6","heliport","D.W. Mcmillian Memorial Hospital Heliport",31.127199172973633,-87.07330322265625,155,"NA","US","US-AL","Brewton","no","0AL6",,"0AL6",,,
7079,"0AL7","heliport","Gadsden Regl Medical Center Heliport",34.00830078125,-85.96530151367188,621,"NA","US","US-AL","Gadsden","no","0AL7",,"0AL7",,,
7080,"0AL8","heliport","Brookwood Medical Center Heliport",33.46390151977539,-86.77310180664062,763,"NA","US","US-AL","Birmingham","no","0AL8",,"0AL8",,,
7081,"0AL9","small_airport","Wilson Creek Airport",34.849998474121094,-87.63249969482422,590,"NA","US","US-AL","Florence","no","0AL9",,"0AL9",,,
7082,"0AR0","heliport","Smh Heliport",36.18149948120117,-94.13710021972656,1352,"NA","US","US-AR","Springdale","no","0AR0",,"0AR0",,,
7083,"0AR1","small_airport","Hooterville South Airport",35.09469985961914,-93.2020034790039,370,"NA","US","US-AR","Centerville","no","0AR1",,"0AR1",,,
7084,"0AR2","small_airport","Mission Field-Marotti Memorial Airport",35.26679992675781,-90.35009765625,217,"NA","US","US-AR","Crawfordsville","no","0AR2",,"0AR2",,,
7085,"0AR3","small_airport","Taylor's Air Strip",35.89899826049805,-93.26100158691406,2160,"NA","US","US-AR","Deer","no","0AR3",,"0AR3",,,
7086,"0AR4","heliport","Gravette Medical Center Hospital Heliport",36.407901763916016,-94.45690155029297,1251,"NA","US","US-AR","Gravette","no","0AR4",,"0AR4",,,
7087,"0AR5","heliport","Rgnl Medical Center Heliport",35.83620071411133,-90.70179748535156,382,"NA","US","US-AR","Jonesboro","no","0AR5",,"0AR5",,,
7088,"0AR6","heliport","Ami National Park Medical Center Heliport",34.48149871826172,-93.03099822998047,547,"NA","US","US-AR","Hot Springs","no","0AR6",,"0AR6",,,
7089,"0AR7","small_airport","Yancopin Airport",33.95009994506836,-91.18119812011719,150,"NA","US","US-AR","Watson","no","0AR7",,"0AR7",,,
7090,"0AR8","heliport","Howard Memorial Hospital Heliport",33.95009994506836,-93.85209655761719,549,"NA","US","US-AR","Nashville","no","0AR8",,"0AR8",,,
7091,"0AR9","heliport","Eureka Springs Hospital Heliport",36.40010070800781,-93.74349975585938,1540,"NA","US","US-AR","Eureka Springs","no","0AR9",,"0AR9",,,
7092,"0AZ0","heliport","Arizona Heart Hospital Heliport",33.481300354003906,-112.04000091552734,1161,"NA","US","US-AZ","Phoenix","no","0AZ0",,"0AZ0",,,
7093,"0AZ1","small_airport","Taylor Field",32.300899505615234,-111.3239974975586,2130,"NA","US","US-AZ","Marana","no","0AZ1",,"0AZ1",,,
7094,"0AZ2","small_airport","Western Sky Airport",33.778099060058594,-113.64199829101562,1930,"NA","US","US-AZ","Salome","no","0AZ2",,"0AZ2",,,
7095,"0AZ4","small_airport","Flying Bucket Ranch Airport",32.9822998046875,-112.28700256347656,1505,"NA","US","US-AZ","Mobile","no","0AZ4",,"0AZ4",,,
7096,"0AZ5","small_airport","Castle Well Airport",33.86589813232422,-112.60299682617188,2080,"NA","US","US-AZ","Morristown","no","0AZ5",,"0AZ5",,,
7097,"0AZ6","heliport","St Joseph's Hospital Heliport",33.4817008972,-112.077003479,1213,"NA","US","US-AZ","Phoenix","no","0AZ6",,"0AZ6",,,
7098,"0AZ7","heliport","Sunstate Heliport",33.44369888305664,-111.96299743652344,1180,"NA","US","US-AZ","Phoenix","no","0AZ7",,"0AZ7",,,
7099,"0B2","small_airport","Brewer Airport",44.76369857788086,-68.7677993774414,124,"NA","US","US-ME","Brewer","no","0B2",,"0B2",,,
7100,"0B7","small_airport","Warren-Sugarbush Airport",44.1166992188,-72.8271026611,1470,"NA","US","US-VT","Warren","no","0B7",,"0B7",,"http://en.wikipedia.org/wiki/Warren-Sugarbush_Airport",
7101,"0C1","small_airport","Triple R Airport",39.48780059814453,-94.78050231933594,1000,"NA","US","US-MO","Dearborn","no","0C1",,"0C1",,,
7102,"0C2","small_airport","Hinckley Airport",41.77090072631836,-88.70339965820312,760,"NA","US","US-IL","Hinckley","no","0C2",,"0C2",,,
7103,"0C5","small_airport","Canadian Lakes Airport",43.57640075683594,-85.28060150146484,960,"NA","US","US-MI","Mecosta","no","0C5",,"0C5",,,
7104,"0C7","small_airport","Grandpas' Farm Mendota Airport",41.52199935913086,-89.13259887695312,727,"NA","US","US-IL","Mendota","no","0C7",,"0C7",,,
7105,"0C8","small_airport","Cushing Field Ltd Airport",41.519500732421875,-88.60559844970703,640,"NA","US","US-IL","Newark","no","0C8",,"0C8",,,
7106,"0C9","heliport","Coach & Paddock Heliport",40.63819885253906,-74.97570037841797,320,"NA","US","US-NJ","Clinton","no","0C9",,"0C9",,,
7107,"0CA0","heliport","Drew Medical Center Heliport",33.923301696777344,-118.24199676513672,180,"NA","US","US-CA","Los Angeles","no","0CA0",,"0CA0",,,
7108,"0CA1","closed","Northside Airpark",34.9883003235,-120.458000183,190,"NA","US","US-CA","Santa Maria","no",,,,,,"0CA1"
7109,"0CA2","heliport","Va Greater Los Angeles Health Care Center Heliport",34.049198150634766,-118.45600128173828,294,"NA","US","US-CA","West Los Angeles","no","0CA2",,"0CA2",,,
7110,"0CA3","small_airport","Crawford Airport",34.587501525878906,-120.01300048828125,570,"NA","US","US-CA","Santa Ynez","no","0CA3",,"0CA3",,,
7111,"0CA4","small_airport","Shepherd Ranch Airport",34.62220001220703,-120.06500244140625,660,"NA","US","US-CA","Santa Ynez","no","0CA4",,"0CA4",,,
7112,"0CA5","small_airport","Hoffman Private Airport",33.14310073852539,-116.74500274658203,3100,"NA","US","US-CA","Santa Ysabel","no","0CA5",,"0CA5",,,
7113,"0CA6","small_airport","Emory Ranch Airport",32.7494444,-116.0161111,480,"NA","US","US-CA","Ocotillo","no","0CA6",,"0CA6",,,
7114,"0CA7","heliport","Boeing Seal Beach (Rooftop) Heliport",33.7569999695,-118.087997437,158,"NA","US","US-CA","Seal Beach","no","0CA7",,"0CA7",,,
7115,"0CA8","small_airport","Ward Ranch Airport",33.4277992249,-116.843002319,2500,"NA","US","US-CA","Aguanga","no","0CA8",,"0CA8",,,
7116,"0CA9","small_airport","Blech Ranch Airport",35.5950012207,-120.338996887,1140,"NA","US","US-CA","Shandon","no","0CA9",,"0CA9",,,
7117,"0CD0","heliport","Delta County Memorial Hospital Heliport",38.7407989502,-108.052001953,5000,"NA","US","US-CO","Delta","no","0CD0",,"0CD0",,,
7118,"0CD1","heliport","Colorado Plains Medical Center Heliport",40.2610917,-103.7963389,4356,"NA","US","US-CO","Fort Morgan","no","0CD1",,"0CD1",,,
7119,"0CD2","small_airport","Foxx Valley Airport",38.652500152600005,-104.23400116,5800,"NA","US","US-CO","Yoder","no","0CD2",,"0CD2",,,
7120,"0CD3","heliport","Branch's Heliport",40.3479995728,-104.527999878,4635,"NA","US","US-CO","Kersey","no","0CD3",,"0CD3",,,
7121,"0CD4","heliport","Kauffman Heliport",40.1463012695,-104.887001038,5120,"NA","US","US-CO","Denver","no","0CD4",,"0CD4",,,
7122,"0CD5","small_airport","Pinon Canyon Airport",37.490501403799996,-104.143997192,5686,"NA","US","US-CO","Trinidad","no","0CD5",,"0CD5",,,
7123,"0CD6","heliport","Exempla Good Samaritan Heliport",39.971698761,-105.084999084,5204,"NA","US","US-CO","Lafayette","no","0CD6",,"0CD6",,,
7124,"0CD7","small_airport","Fox Hole Airport",40.004699707,-105.071998596,5135,"NA","US","US-CO","Lafayette","no","0CD7",,"0CD7",,,
7125,"0CD8","heliport","Prowers Medical Center Heliport",38.0710983276,-102.60900116,3575,"NA","US","US-CO","Lamar","no","0CD8",,"0CD8",,,
7126,"0CD9","heliport","Swedish S.W. Medical Heliport",39.603099823,-105.091003418,5563,"NA","US","US-CO","Littleton","no","0CD9",,"0CD9",,,
7127,"0CL0","small_airport","Yosemite Hidden Lake Ranch Airport",37.11800003049999,-119.913002014,500,"NA","US","US-CA","Raymond","no","0CL0",,"0CL0",,,
7128,"0CL1","small_airport","Krey Field Airport",34.5694007874,-117.555999756,3042,"NA","US","US-CA","Adelanto","no","0CL1",,"0CL1",,,
7129,"0CL2","heliport","Parking Lot Heliport",32.593898773199996,-117.084999084,,"NA","US","US-CA","Chula Vista","no","0CL2",,"0CL2",,,
7130,"0CL3","small_airport","John Nichol's Field Airport",32.633098602299995,-116.892997742,490,"NA","US","US-CA","Chula Vista","no","0CL3",,"0CL3",,,
7131,"0CL4","heliport","Glen Fed Heliport",34.1571998596,-118.254997253,770,"NA","US","US-CA","Glendale","no","0CL4",,"0CL4",,,
7132,"0CL5","heliport","The Atrium Heliport",33.6706008911,-117.858001709,46,"NA","US","US-CA","Irvine","no","0CL5",,"0CL5",,,
7133,"0CL6","small_airport","Bohunk's Airpark",34.694698333699996,-118.282997131,2410,"NA","US","US-CA","Lancaster","no","0CL6",,"0CL6",,,
7134,"0CL7","heliport","Good Samaritan Hospital Heliport",34.0545005798,-118.26499939,473,"NA","US","US-CA","Los Angeles","no","0CL7",,"0CL7",,,
7135,"0CL8","small_airport","Tera Ultralightport",35.5913009644,-117.634002686,2510,"NA","US","US-CA","Ridgecrest","no","0CL8",,"0CL8",,,
7136,"0CL9","heliport","Sce San Jacinto Valley Service Center Heliport",33.741100311299995,-117.151000977,1482,"NA","US","US-CA","Romoland","no","0CL9",,"0CL9",,,
7137,"0CO0","heliport","Longmont United Hospital Heliport",40.178901672399995,-105.125999451,5047,"NA","US","US-CO","Longmont","no","0CO0",,"0CO0",,,
7138,"0CO1","small_airport","Dave's Airport",40.0332984924,-105.124000549,5170,"NA","US","US-CO","Louisville","no","0CO1",,"0CO1",,,
7139,"0CO2","small_airport","Buckhorn Ranch Airport",38.8518981934,-106.93282,8980,"NA","US","US-CO","Crested Butte","no","0CO2","CSE","0CO2",,,
7140,"0CO3","small_airport","Greggs Nr 1 Airport",39.8894004822,-104.544998169,5373,"NA","US","US-CO","Bennett","no","0CO3",,"0CO3",,,
7141,"0CO4","heliport","Geo-Seis Helicopters Heliport",40.5899009705,-105.04599762,4935,"NA","US","US-CO","Fort Collins","no","0CO4",,"0CO4",,,
7142,"0CO5","small_airport","Chenoweth Airport",39.8333015442,-103.589996338,4697,"NA","US","US-CO","Last Chance","no","0CO5",,"0CO5",,,
7143,"0CO6","small_airport","Flying M & M Ranch Airport",38.2193984985,-108.212997437,8000,"NA","US","US-CO","Norwood","no","0CO6",,"0CO6",,,
7144,"0CO7","heliport","Century Helicopters Heliport",40.5854988098,-105.040000916,4935,"NA","US","US-CO","Fort Collins","no","0CO7",,"0CO7",,,
7145,"0CO8","small_airport","Cartwheel Airport",40.2083015442,-105.013000488,5010,"NA","US","US-CO","Mead","no","0CO8",,"0CO8",,,
7146,"0CO9","small_airport","Van Treese Airport",37.6582984924,-106.033996582,7613,"NA","US","US-CO","Monte Vista","no","0CO9",,"0CO9",,,
7147,"0CT0","heliport","Sharon Hospital Heliport",41.8811988831,-73.48100280759999,640,"NA","US","US-CT","Sharon","no","0CT0",,"0CT0",,,
7148,"0CT1","heliport","Bristol-Myers Squibb Company Heliport",41.484798431396484,-72.7562026977539,350,"NA","US","US-CT","Wallingford","no","0CT1",,"0CT1",,,
7149,"0CT2","heliport","Windham Hospital Heliport",41.71699905395508,-72.22589874267578,330,"NA","US","US-CT","Willimantic","no","0CT2",,"0CT2",,,
7150,"0CT3","heliport","N B G H Heliport",41.661598205566406,-72.78790283203125,431,"NA","US","US-CT","New Britain","no","0CT3",,"0CT3",,,
7151,"0CT4","heliport","Burke Heliport",41.50619888305664,-72.9397964477539,400,"NA","US","US-CT","Prospect","no","0CT4",,"0CT4",,,
7152,"0CT5","heliport","St Francis Hospital Heliport",41.77450180053711,-72.6989974975586,184,"NA","US","US-CT","Hartford","no","0CT5",,"0CT5",,,
7153,"0CT6","heliport","Middletown Heliport",41.5968017578125,-72.70449829101562,113,"NA","US","US-CT","Middletown","no","0CT6",,"0CT6",,,
7154,"0CT7","heliport","Bridgeport Hospital Heliport",41.18840026855469,-73.16619873046875,80,"NA","US","US-CT","Bridgeport","no","0CT7",,"0CT7",,,
7155,"0CT8","heliport","Danbury Hospital Heliport",41.405601501464844,-73.4447021484375,510,"NA","US","US-CT","Danbury","no","0CT8",,"0CT8",,,
7156,"0CT9","heliport","Hartford Hospital Heliport",41.75450134277344,-72.67870330810547,211,"NA","US","US-CT","Hartford","no","0CT9",,"0CT9",,,
7157,"0D6","small_airport","Wilber Municipal Airport",40.474998474121094,-96.98780059814453,1400,"NA","US","US-NE","Wilber","no","0D6",,"0D6",,,
7158,"0D7","small_airport","Ada Airport",40.79059982299805,-83.8291015625,949,"NA","US","US-OH","Ada","no","0D7",,"0D7",,,
315634,"0D9","closed","Air Park North",44.958,-84.9587,1170,"NA","US","US-MI","Alba","no","0D9",,"0D9",,,
7159,"0E9","small_airport","Corydon Airport",40.75450134277344,-93.24130249023438,1020,"NA","US","US-IA","Corydon","no","0E9",,"0E9",,,
7160,"0FA0","heliport","Doral Resort & Country Club Heliport",25.81290054321289,-80.33889770507812,6,"NA","US","US-FL","Miami","no","0FA0",,"0FA0",,,
7161,"0FA1","small_airport","Frierson Grove Airport",27.30389976501465,-81.88040161132812,65,"NA","US","US-FL","Arcadia","no","0FA1",,"0FA1",,,
45349,"0FA2","heliport","Doctors Memorial Hospital #2 Heliport",30.119753,-83.592732,57,"NA","US","US-FL","Perry","no","0FA2",,"0FA2",,,
7162,"0FD0","small_airport","Big 'G' Airport",29.267499923706055,-81.2301025390625,40,"NA","US","US-FL","Ormond Beach","no","0FD0",,"0FD0",,,
7163,"0FD1","heliport","Panhandle Helicopter Llc Heliport",30.214099884,-85.8722000122,20,"NA","US","US-FL","Panama City Beach","no","0FD1",,"0FD1",,,
7164,"0FD2","heliport","Dolphin Stadium Heliport",25.9599926383,-80.23700259630002,8,"NA","US","US-FL","Miami","no","0FD2",,"0FD2",,,
7165,"0FD3","small_airport","Dugger Field",30.496400833129883,-86.09380340576172,70,"NA","US","US-FL","Freeport","no","0FD3",,"0FD3",,,
7166,"0FD4","heliport","Cloverleaf Farms Ii Inc. Heliport",29.3614006042,-82.2081985474,100,"NA","US","US-FL","Reddick","no","0FD4",,"0FD4",,,
7167,"0FD5","small_airport","Breezy Knoll Airport",30.820199966430664,-86.34439849853516,235,"NA","US","US-FL","Defuniak Springs","no","0FD5",,"0FD5",,,
7168,"0FD6","seaplane_base","Fulton Seaplane Base",27.907499313354492,-80.48639678955078,,"NA","US","US-FL","Sebastian","no","0FD6",,"0FD6",,,
7169,"0FD9","small_airport","Joy Farms Airport",30.652099609375,-86.1093978881836,290,"NA","US","US-FL","Defuniak Springs","no","0FD9",,"0FD9",,,
7170,"0FL0","small_airport","Harper's Fly-In Ranch Airport",26.730600357055664,-81.16390228271484,30,"NA","US","US-FL","Clewiston","no","0FL0",,"0FL0",,,
7171,"0FL1","small_airport","Thompson Airfield",29.983299255371094,-82.83560180664062,110,"NA","US","US-FL","Branford","no","0FL1",,"0FL1",,,
7172,"0FL2","seaplane_base","Alligator Drink Seaplane Base",28.787799835205078,-81.16419982910156,19,"NA","US","US-FL","Geneva","no","0FL2",,"0FL2",,,
7173,"0FL3","heliport","Old Town Ems Heliport",29.602800369262695,-82.98169708251953,25,"NA","US","US-FL","Old Town","no","0FL3",,"0FL3",,,
7174,"0FL4","heliport","Jackson Heliport",30.704999923706055,-85.37830352783203,110,"NA","US","US-FL","Alford","no","0FL4",,"0FL4",,,
7175,"0FL5","seaplane_base","Lake Conway South Seaplane Base",28.458599090576172,-81.34970092773438,80,"NA","US","US-FL","Belle Isle","no","0FL5",,"0FL5",,,
7176,"0FL6","small_airport","Stanchester Airport",27.80590057373047,-82.14009857177734,94,"NA","US","US-FL","Lithia","no","0FL6",,"0FL6",,,
7177,"0FL7","heliport","Wcpx Tv-6 Heliport",28.610300064086914,-81.41940307617188,114,"NA","US","US-FL","Orlando","no","0FL7",,"0FL7",,,
7178,"0FL8","seaplane_base","Gary Gale Seaplane Base",30.193899154663086,-81.68190002441406,,"NA","US","US-FL","Jacksonville","no","0FL8",,"0FL8",,,
7179,"0FL9","small_airport","Mc Daniel Ranch Inc. Airport",26.3938999176,-81.0231018066,18,"NA","US","US-FL","Clewiston","no","0FL9",,"0FL9",,,
7180,"0G0","small_airport","North Buffalo Suburban Airport",43.10319900512695,-78.70330047607422,588,"NA","US","US-NY","Lockport","no","0G0",,"0G0",,,
7181,"0G5","seaplane_base","Grand Marais/Cook County Seaplane Base",47.8263,-90.3835,1635,"NA","US","US-MN","Grand Marais","no","0G5",,"0G5","http://www.boreal.org/airport/","http://en.wikipedia.org/wiki/Grand_Marais/Cook_County_Seaplane_Base","Devil Track Resort"
7182,"0GA0","small_airport","Halls Flying Ranch Airport",33.356201171875,-84.36710357666016,800,"NA","US","US-GA","Hampton","no","0GA0",,"0GA0",,,
7183,"0GA1","small_airport","Mustang Field",34.477901458740234,-82.89710235595703,693,"NA","US","US-GA","Hartwell","no","0GA1",,"0GA1",,,
7184,"0GA2","small_airport","Airnautique, Inc. Airport",34.377899169921875,-82.9457015991211,720,"NA","US","US-GA","Hartwell","no","0GA2",,"0GA2",,,
7185,"0GA3","small_airport","Ayresouth Airport",33.77009963989258,-85.06079864501953,1287,"NA","US","US-GA","Temple","no","0GA3",,"0GA3",,,
7186,"0GA4","small_airport","Paradise Falls Airport",33.81290054321289,-83.50569915771484,736,"NA","US","US-GA","High Shoals","no","0GA4",,"0GA4",,,
7187,"0GA5","heliport","Big Canoe Heliport",34.45479965209961,-84.28910064697266,1475,"NA","US","US-GA","Jasper","no","0GA5",,"0GA5",,,
7188,"0GA6","small_airport","Sunset Strip",33.7333984375,-83.81880187988281,780,"NA","US","US-GA","Jersey","no","0GA6",,"0GA6",,,
7189,"0GA7","small_airport","Hickory Level Airfield",33.68339920043945,-84.9999008178711,1080,"NA","US","US-GA","Temple","no","0GA7",,"0GA7",,,
7190,"0GA8","small_airport","Paso Fino Farm Airport",30.887100219726562,-83.41600036621094,200,"NA","US","US-GA","Valdosta","no","0GA8",,"0GA8",,,
7191,"0GA9","small_airport","Roberta Industrial Park Airport",32.71390151977539,-84.02749633789062,505,"NA","US","US-GA","Roberta","no","0GA9",,"0GA9",,,
7192,"0GE0","small_airport","Pinewood Airport",33.782100677490234,-84.80079650878906,1085,"NA","US","US-GA","Douglasville","no","0GE0",,"0GE0",,,
7193,"0GE1","small_airport","Crystal Lake Airpark",31.66550064086914,-83.44709777832031,327,"NA","US","US-GA","Irwinville","no","0GE1",,"0GE1",,,
7194,"0GE3","small_airport","Lookout Mountain Airport",34.904701232910156,-85.45970153808594,563,"NA","US","US-GA","Trenton","no","0GE3",,"0GE3",,,
7195,"0GE4","small_airport","Pecan Patch Airstrip",33.33140182495117,-84.2667007446289,860,"NA","US","US-GA","Sunnyside","no","0GE4",,"0GE4",,,
7196,"0GE5","small_airport","Mountain Airpark",34.561798095703125,-83.7135009765625,1438,"NA","US","US-GA","Cleveland","no","0GE5",,"0GE5",,,
7197,"0GE7","small_airport","Carpenter Airport",33.520301818847656,-82.37249755859375,450,"NA","US","US-GA","Appling","no","0GE7",,"0GE7",,,
7198,"0GE9","small_airport","Pegasus Ranch Airport",32.69390106201172,-81.79859924316406,230,"NA","US","US-GA","Rocky Ford","no","0GE9",,"0GE9",,,
7199,"0H7","small_airport","Kahoka Municipal Airport",40.421600341796875,-91.706298828125,700,"NA","US","US-MO","Kahoka","no","0H7",,"0H7",,,
7200,"0I2","small_airport","Brazil Clay County Airport",39.47669982910156,-87.09970092773438,645,"NA","US","US-IN","Brazil","no","0I2",,"0I2",,,
7201,"0IA0","heliport","Knoxville Area Community Hospital Heliport",41.316898345947266,-93.09600067138672,927,"NA","US","US-IA","Knoxville","no","0IA0",,"0IA0",,,
7202,"0IA1","heliport","St Anthony Regional Hospital Heliport",42.05830001831055,-94.86830139160156,1300,"NA","US","US-IA","Carroll","no","0IA1",,"0IA1",,,
7203,"0IA2","heliport","Audubon County Memorial Hospital Heliport",41.71549987792969,-94.9385986328125,1320,"NA","US","US-IA","Audubon","no","0IA2",,"0IA2",,,
7204,"0IA3","small_airport","Hawkeye Airport",42.43470001220703,-92.3280029296875,883,"NA","US","US-IA","Waterloo","no","0IA3",,"0IA3",,,
7205,"0IA4","small_airport","Sharar Field",41.03340148925781,-91.05010223388672,700,"NA","US","US-IA","Mediapolis","no","0IA4",,"0IA4",,,
7206,"0IA5","small_airport","Moore Private Airport",40.87220001220703,-93.26270294189453,1060,"NA","US","US-IA","Millerton","no","0IA5",,"0IA5",,,
7207,"0IA6","small_airport","Rinehart Airport",41.659698486328125,-92.28990173339844,920,"NA","US","US-IA","Victor","no","0IA6",,"0IA6",,,
7208,"0IA7","heliport","Cromwell Heliport",41.03889846801758,-94.46690368652344,1300,"NA","US","US-IA","Cromwell","no","0IA7",,"0IA7",,,
7209,"0IA8","small_airport","Hannen Airport",42.22800064086914,-91.7509994506836,925,"NA","US","US-IA","Center Point","no","0IA8",,"0IA8",,,
7210,"0IA9","heliport","Army Reserve Heliport",40.83340072631836,-91.30010223388672,725,"NA","US","US-IA","Middleton","no","0IA9",,"0IA9",,,
7211,"0ID0","small_airport","South Fork Ranch Airport",43.60639953613281,-115.10700225830078,4861,"NA","US","US-ID","Featherville","no","0ID0",,"0ID0",,,
7212,"0ID1","small_airport","Ziggy's Airport",42.64120101928711,-114.6050033569336,3225,"NA","US","US-ID","Filer","no","0ID1",,"0ID1",,,
7213,"0ID2","small_airport","Flying Joseph Ranch Airport",44.442901611299995,-113.773002625,5600,"NA","US","US-ID","May","no","0ID2",,"0ID2",,,
7214,"0ID3","small_airport","Coyote Run Airport",43.075801849365234,-115.6729965209961,3150,"NA","US","US-ID","Mountain Home","no","0ID3",,"0ID3",,,
7215,"0ID4","small_airport","Black Butte Ranch Airport",43.047698974609375,-114.47000122070312,4020,"NA","US","US-ID","Shoshone","no","0ID4",,"0ID4",,,
7216,"0ID5","small_airport","Ez Lope Ranch Airport",43.0531005859375,-116.46199798583984,3130,"NA","US","US-ID","Oreana","no","0ID5",,"0ID5",,,
7217,"0ID6","heliport","Steele Memorial Heliport",45.17390060424805,-113.89099884033203,4004,"NA","US","US-ID","Salmon","no","0ID6",,"0ID6",,,
45394,"0ID7","small_airport","Z X Ranch Airport",43.230308,-116.763192,3820,"NA","US","US-ID","Murphy","no","0ID7",,"0ID7",,,
45387,"0ID8","small_airport","Pinnacle Airport",45.775197,-116.178475,3800,"NA","US","US-ID","Grangeville","no","0ID8",,"0ID8",,,
7218,"0II0","small_airport","Chuck's Airport",40.2599983215332,-85.25330352783203,955,"NA","US","US-IN","Albany","no","0II0",,"0II0",,,
7219,"0II1","small_airport","Unsicker Airport",40.4281005859375,-86.1532974243164,816,"NA","US","US-IN","Bremen","no","0II1",,"0II1",,,
7220,"0II2","small_airport","Creighton Airport",41.457298278808594,-86.12439727783203,820,"NA","US","US-IN","Bremen","no","0II2",,"0II2",,,
7221,"0II3","small_airport","Miller Strip",40.62779998779297,-86.03780364990234,810,"NA","US","US-IN","Bunker Hill","no","0II3",,"0II3",,,
7222,"0II5","small_airport","Marshall Field",40.65950012207031,-86.8572006225586,705,"NA","US","US-IN","Chalmers","no","0II5",,"0II5",,,
7223,"0II6","small_airport","Kropf Airport",41.64310073852539,-85.82969665527344,810,"NA","US","US-IN","Goshen","no","0II6",,"0II6",,,
7224,"0II7","small_airport","Frost Field",39.79560089111328,-85.78610229492188,900,"NA","US","US-IN","Greenfield","no","0II7",,"0II7",,,
7225,"0II8","small_airport","Sutton's Field",41.324798583984375,-87.47589874267578,740,"NA","US","US-IN","Lowell","no","0II8",,"0II8",,,
7226,"0II9","small_airport","Winters Airport",39.53419876098633,-86.57720184326172,755,"NA","US","US-IN","Hall","no","0II9",,"0II9",,,
7227,"0IL0","heliport","Hamilton Memorial Hospital Heliport",38.086700439453125,-88.53890228271484,440,"NA","US","US-IL","Mc Leansboro","no","0IL0",,"0IL0",,,
7228,"0IL1","heliport","Loyola University Medical Center Heliport",41.86090087890625,-87.8364028930664,623,"NA","US","US-IL","Broadview","no","0IL1",,"0IL1",,,
45950,"0IL2","small_airport","Griffin Airport",38.803056,-88.997778,541,"NA","US","US-IL","Alma","no","0IL2",,"0IL2",,,
7229,"0IL3","small_airport","Flying B Ranch Airport",40.15700149536133,-87.67449951171875,696,"NA","US","US-IL","Danville","no","0IL3",,"0IL3",,,
7230,"0IL4","heliport","Good Samaritan Hospital Heliport",41.81890106201172,-88.00779724121094,772,"NA","US","US-IL","Downers Grove","no","0IL4",,"0IL4",,,
7231,"0IL6","heliport","Kishwaukee Community Hospital Heliport",41.9631004333,-88.717300415,852,"NA","US","US-IL","De Kalb","no","0IL6",,"0IL6",,,
7232,"0IL8","small_airport","Walter Airport",41.872501373291016,-88.72370147705078,890,"NA","US","US-IL","De Kalb","no","0IL8",,"0IL8",,,
7233,"0IL9","small_airport","Jack W. Watson Airport",41.854801177978516,-88.78730010986328,880,"NA","US","US-IL","De Kalb","no","0IL9",,"0IL9",,,
7234,"0IN1","small_airport","Snider Field",38.5,-87.59590148925781,400,"NA","US","US-IN","Decker","no","0IN1",,"0IN1",,,
7235,"0IN2","small_airport","The Lazy K Airport",40.82780075073242,-85.08609771728516,835,"NA","US","US-IN","Tocsin","no","0IN2",,"0IN2",,,
7236,"0IN3","small_airport","Graves Landing Strip",41.11669921875,-86.66670227050781,704,"NA","US","US-IN","Winamac","no","0IN3",,"0IN3",,,
7237,"0IN4","small_airport","Air Park Field",41.12779998779297,-84.94719696044922,750,"NA","US","US-IN","Woodburn","no","0IN4",,"0IN4",,,
7238,"0IN5","small_airport","Byrne Field",38.32899856567383,-86.03359985351562,800,"NA","US","US-IN","Byrneville","no","0IN5",,"0IN5",,,
7239,"0IN7","heliport","Roto-Whirl/Holiday Heliport",39.92250061035156,-86.2260971069336,875,"NA","US","US-IN","Indianapolis","no","0IN7",,"0IN7",,,
7240,"0IN8","heliport","Roto-Whirl/Vantage Heliport",39.83729934692383,-86.11859893798828,726,"NA","US","US-IN","Indianapolis","no","0IN8",,"0IN8",,,
7241,"0IN9","small_airport","Parrish Airport",37.993099212646484,-87.95140075683594,390,"NA","US","US-IN","Mount Vernon","no","0IN9",,"0IN9",,,
7242,"0IS0","heliport","Trinity Medical Center West Heliport",41.48109817504883,-90.57140350341797,664,"NA","US","US-IL","Rock Island","no","0IS0",,"0IS0",,,
7243,"0IS2","heliport","Evanston/Glenbrook Heliport",42.093101501464844,-87.85260009765625,678,"NA","US","US-IL","Glenview","no","0IS2",,"0IS2",,,
7244,"0IS3","small_airport","Cady Aerial RLA Restricted Landing Area",41.660800933800004,-89.69360351559999,630,"NA","US","US-IL","Deer Grove","no","0IS3",,"0IS3",,,
7245,"0IS4","small_airport","Dawson Farms Airport",39.76250076293945,-88.67150115966797,670,"NA","US","US-IL","Lovington","no","0IS4",,"0IS4",,,
7246,"0IS6","heliport","Dongola Heliport",37.3656005859375,-89.1635971069336,383,"NA","US","US-IL","Dongola","no","0IS6",,"0IS6",,,
7247,"0IS8","heliport","Blessing Hospital At 11th St Heliport",39.9364013672,-91.3990020752,650,"NA","US","US-IL","Quincy","no","0IS8",,"0IS8",,,
7248,"0IS9","heliport","Bernardin Heliport",41.70840072631836,-89.2029037475586,830,"NA","US","US-IL","West Brooklyn","no","0IS9",,"0IS9",,,
7249,"0J0","small_airport","Abbeville Municipal Airport",31.600200653076172,-85.23880004882812,468,"NA","US","US-AL","Abbeville","no","0J0",,"0J0",,,
7250,"0J8","small_airport","Flying Ten Airport",29.618000030517578,-82.50869750976562,85,"NA","US","US-FL","Archer","no","0J8",,"0J8",,,
7251,"0K6","small_airport","Dobie's Airport",36.1599006652832,-95.5802001953125,610,"NA","US","US-OK","Inola","no","0K6",,"0K6",,,
7252,"0KS0","small_airport","J V Ranch Airport",38.63330078125,-95.92530059814453,1180,"NA","US","US-KS","Osage City","no","0KS0",,"0KS0",,,
7253,"0KS2","small_airport","Kellie Mann Airfield",38.560001373291016,-95.30909729003906,1045,"NA","US","US-KS","Ottawa","no","0KS2",,"0KS2",,,
7254,"0KS3","small_airport","Camp Chippewa Airport",38.56669998168945,-95.36689758300781,1120,"NA","US","US-KS","Ottawa","no","0KS3",,"0KS3",,,
7255,"0KS4","small_airport","Norris Airport",38.807239,-95.370056,1065,"NA","US","US-KS","Lawrence","no","0KS4",,"0KS4",,,
7256,"0KS6","small_airport","Kendrigan Airport",37.45220184326172,-97.31780242919922,1240,"NA","US","US-KS","Peck","no","0KS6",,"0KS6",,,
7257,"0KS7","small_airport","Mono Aircraft Airport",37.69279861450195,-97.88639831542969,1450,"NA","US","US-KS","Cheney","no","0KS7",,"0KS7",,,
7258,"0KS8","small_airport","Pearce Field",37.38249969482422,-95.37470245361328,950,"NA","US","US-KS","Parsons","no","0KS8",,"0KS8",,,
7259,"0KS9","small_airport","Lmn 120 Airport",37.515899658203125,-96.9197998046875,1330,"NA","US","US-KS","Douglas","no","0KS9",,"0KS9",,,
7260,"0KY0","small_airport","Owen Air Park",38.622798919677734,-84.77890014648438,890,"NA","US","US-KY","Owenton","no","0KY0",,"0KY0",,,
7261,"0KY1","small_airport","Arnemann Farms Airport",36.76559829711914,-86.61830139160156,504,"NA","US","US-KY","Franklin","no","0KY1",,"0KY1",,,
7262,"0KY2","heliport","Mgt Station 2105 Heliport",37.50559997558594,-86.8375015258789,540,"NA","US","US-KY","Hartford","no","0KY2",,"0KY2",,,
7263,"0KY3","heliport","Tennessee Gas Heliport",38.5614013671875,-83.95279693603516,604,"NA","US","US-KY","Load","no","0KY3",,"0KY3",,,
7264,"0KY4","small_airport","Cambron Field",37.56439971923828,-87.08190155029297,427,"NA","US","US-KY","Owensboro","no","0KY4",,"0KY4",,,
7265,"0KY5","small_airport","Falin Landing Strip",36.8125,-86.375,600,"NA","US","US-KY","Bowling Green","no","0KY5",,"0KY5",,,
7266,"0KY6","heliport","Tennessee Gas Heliport",38.2682991027832,-82.57749938964844,560,"NA","US","US-KY","Burnaugh","no","0KY6",,"0KY6",,,
7267,"0KY7","small_airport","Clinton-Hickman County Airport",36.63610076904297,-88.99859619140625,360,"NA","US","US-KY","Clinton","no","0KY7",,"0KY7",,,
7268,"0KY8","small_airport","Sky Airport",37.1171989440918,-83.73609924316406,850,"NA","US","US-KY","Manchester","no","0KY8",,"0KY8",,,
7269,"0KY9","heliport","Pine Mountain Aero Heliport",37.11360168457031,-82.80359649658203,1300,"NA","US","US-KY","Whitesburg","no","0KY9",,"0KY9",,,
7270,"0L4","small_airport","Lida Junction Airport",37.485801696777344,-117.19100189208984,4684,"NA","US","US-NV","Goldfield","no","0L4",,"0L4",,"http://en.wikipedia.org/wiki/Lida_Junction_Airport",
7271,"0L5","small_airport","Goldfield Airport",37.71799850463867,-117.23799896240234,5680,"NA","US","US-NV","Goldfield","no","0L5",,"0L5",,"http://en.wikipedia.org/wiki/Goldfield_Airport",
7272,"0L6","heliport","Winn Parish Medical Center Heliport",31.923200607299805,-92.64569854736328,140,"NA","US","US-LA","Winnfield","no","0L6",,"0L6",,,
7273,"0LA0","heliport","West Hackberry Heliport",30.008499145507812,-93.40019989013672,10,"NA","US","US-LA","Hackberry","no","0LA0",,"0LA0",,,
7274,"0LA1","small_airport","Double H Ranch Airport",30.229400634765625,-90.97339630126953,15,"NA","US","US-LA","Gonzales","no","0LA1",,"0LA1",,,
7275,"0LA2","small_airport","Don Babin-Private Airport",30.277999877929688,-90.96320343017578,17,"NA","US","US-LA","Gonzales","no","0LA2",,"0LA2",,,
7276,"0LA3","small_airport","Belcher Airpatch Airport",32.749298095703125,-93.87349700927734,280,"NA","US","US-LA","Belcher","no","0LA3",,"0LA3",,,
7277,"0LA4","heliport","North Caddo Medical Center Heliport",32.86410140991211,-93.98899841308594,200,"NA","US","US-LA","Vivian","no","0LA4",,"0LA4",,,
7278,"0LA5","heliport","Conoco Inc Heliport",29.257999420166016,-89.96369934082031,3,"NA","US","US-LA","Grand Isle","no","0LA5",,"0LA5",,,
7279,"0LA6","heliport","Freeport Sulphur Heliport",29.25860023498535,-89.95919799804688,3,"NA","US","US-LA","Grand Isle","no","0LA6",,"0LA6",,,
7280,"0LA7","heliport","Exxon Heliport",29.255800247192383,-89.96759796142578,6,"NA","US","US-LA","Grand Isle","no","0LA7",,"0LA7",,,
7281,"0LA8","heliport","Jackson Parish Hospital Heliport",32.25170135498047,-92.71279907226562,183,"NA","US","US-LA","Jonesboro","no","0LA8",,"0LA8",,,
7282,"0LA9","small_airport","Rebel Field",30.586299896240234,-90.86150360107422,74,"NA","US","US-LA","Watson","no","0LA9",,"0LA9",,,
7283,"0LL0","small_airport","Kaufield Airport",42.26470184326172,-88.7300033569336,783,"NA","US","US-IL","Belvidere","no","0LL0",,"0LL0",,,
7284,"0LL1","small_airport","Jerseyville Aviation Inc Airport",39.094200134277344,-90.31340026855469,604,"NA","US","US-IL","Jerseyville","no","0LL1",,"0LL1",,,
7285,"0LL2","small_airport","Murk's Strip",40.738899231,-90.38069915770001,700,"NA","US","US-IL","St. Augustine","no","0LL2",,"0LL2",,,
7286,"0LL3","small_airport","Koenig Airport",39.05500030517578,-90.34210205078125,614,"NA","US","US-IL","Jerseyville","no","0LL3",,"0LL3",,,
7287,"0LL4","small_airport","Flaherty Field",41.4192008972168,-89.12310028076172,664,"NA","US","US-IL","La Salle","no","0LL4",,"0LL4",,,
7288,"0LL5","small_airport","Busboom RLA Restricted Landing Area",40.1100006104,-88.07839965820001,675,"NA","US","US-IL","St Joseph","no","0LL5",,"0LL5",,,
7289,"0LL6","small_airport","Gord Airport",41.69839859008789,-88.60759735107422,710,"NA","US","US-IL","Sandwich","no","0LL6",,"0LL6",,,
7290,"0LL7","heliport","Hospital Heliport",41.650001525878906,-88.61669921875,670,"NA","US","US-IL","Sandwich","no","0LL7",,"0LL7",,,
7291,"0LL9","heliport","Savanna Army Depot Helipad",42.1833992004,-90.25569915770001,650,"NA","US","US-IL","Savanna","no","0LL9",,"0LL9",,,
7292,"0LS0","small_airport","Theriot Field",29.74970054626465,-90.73580169677734,13,"NA","US","US-LA","Thibodaux","no","0LS0",,"0LS0",,,
7294,"0LS2","heliport","Evergreen Fourchon Heliport",29.11639976501465,-90.20220184326172,6,"NA","US","US-LA","Golden Meadow","no","0LS2",,"0LS2",,,
7295,"0LS3","heliport","Evergreen Venice Heliport",29.29669952392578,-89.37439727783203,,"NA","US","US-LA","Venice","no","0LS3",,"0LS3",,,
7296,"0LS4","small_airport","Buller's Airstrip",30.808700561523438,-92.18800354003906,47,"NA","US","US-LA","Bunkie","no","0LS4",,"0LS4",,,
7297,"0LS5","small_airport","Trahan Ultralightport",30.306900024414062,-92.12979888916016,40,"NA","US","US-LA","Cankton","no","0LS5",,"0LS5",,,
7298,"0LS6","small_airport","Dufour Airport",30.787700653076172,-92.05039978027344,42,"NA","US","US-LA","Morrow","no","0LS6",,"0LS6",,,
7299,"0LS7","small_airport","Morgan Field",30.61280059814453,-91.48419952392578,36,"NA","US","US-LA","New Roads","no","0LS7",,"0LS7",,,
7300,"0LS8","small_airport","Lonesome Dove Airfield",30.28580093383789,-92.94129943847656,34,"NA","US","US-LA","Woodlawn","no","0LS8",,"0LS8",,,
7301,"0LS9","small_airport","Huenefeld Airport",32.50429916381836,-91.98210144042969,72,"NA","US","US-LA","Monroe","no","0LS9",,"0LS9",,,
7302,"0MA1","heliport","Massachusetts General Hospital Heliport",42.36370086669922,-71.06890106201172,214,"NA","US","US-MA","Boston","no","0MA1",,"0MA1",,,
7303,"0MA2","heliport","Healthalliance Hospital-Leominster Heliport",42.54090118408203,-71.76280212402344,450,"NA","US","US-MA","Leominster","no","0MA2",,"0MA2",,,
7304,"0MA3","heliport","Reh Heliport",41.78739929199219,-71.23179626464844,100,"NA","US","US-MA","Rehoboth","no","0MA3",,"0MA3",,,
7305,"0MA4","heliport","Boston Medical Center Hospital Heliport",42.33359909057617,-71.07170104980469,19,"NA","US","US-MA","Boston","no","0MA4",,"0MA4",,,
7306,"0MA5","heliport","Brockton Usar Center Heliport",42.05590057373047,-71.05590057373047,85,"NA","US","US-MA","Brockton","no","0MA5",,"0MA5",,,
7307,"0MA6","heliport","Wbz Heliport",42.3651008605957,-71.13259887695312,9,"NA","US","US-MA","Boston","no","0MA6",,"0MA6",,,
7308,"0MA8","heliport","Textron/Everett Heliport",42.40449905395508,-71.07060241699219,40,"NA","US","US-MA","Everett","no","0MA8",,"0MA8",,,
7309,"0MA9","heliport","Lleia Kyle O'Meara Heliport",42.50310134887695,-71.90840148925781,1230,"NA","US","US-MA","Westminster","no","0MA9",,"0MA9",,,
7310,"0MD0","heliport","Baltimore Washington Medical Center Heliport",39.1375999451,-76.623298645,77,"NA","US","US-MD","Glen Burnie","no","0MD0",,"0MD0",,,
7311,"0MD1","small_airport","Taylor Field",39.18730163574219,-75.7927017211914,75,"NA","US","US-MD","Sudlersville","no","0MD1",,"0MD1",,,
7312,"0MD2","small_airport","Squier Landing Airport",38.287899017333984,-76.86750030517578,16,"NA","US","US-MD","Cobb Island","no","0MD2",,"0MD2",,,
7313,"0MD3","heliport","The Johns Hopkins Hospital Heliport",39.297298431396484,-76.59329986572266,260,"NA","US","US-MD","Baltimore","no","0MD3",,"0MD3",,,
7314,"0MD4","small_airport","Pond View Private Airport",39.26679992675781,-76.18720245361328,47,"NA","US","US-MD","Chestertown","no","0MD4",,"0MD4",,,
7315,"0MD5","heliport","Greater Laurel Beltsville Hospital Heliport",39.08760070800781,-76.88159942626953,285,"NA","US","US-MD","Laurel","no","0MD5",,"0MD5",,,
7316,"0MD6","small_airport","Walters Airport",39.38119888305664,-77.10579681396484,750,"NA","US","US-MD","Mount Airy","no","0MD6",,"0MD6",,,
7317,"0MD7","heliport","The Aspen Institute Heliport",38.9093017578125,-76.11969757080078,20,"NA","US","US-MD","Queenstown","no","0MD7",,"0MD7",,,
7318,"0MD8","heliport","Security Ford Heliport",39.24589920043945,-76.67610168457031,30,"NA","US","US-MD","Arbutus","no","0MD8",,"0MD8",,,
7319,"0MD9","heliport","Calvert Memorial Hospital Heliport",38.56100082397461,-76.59660339355469,143,"NA","US","US-MD","Prince Frederick","no","0MD9",,"0MD9",,,
45455,"0ME4","small_airport","Peasley Field",44.742469,-68.474403,271,"NA","US","US-ME","Otis","no","0ME4",,"0ME4",,,
7320,"0MI0","heliport","Sumner Heliport",42.970001220703125,-85.66590118408203,657,"NA","US","US-MI","Grand Rapids","no","0MI0",,"0MI0",,,
7321,"0MI1","small_airport","Sugar Springs Airport",44.14030075073242,-84.4375,940,"NA","US","US-MI","Gladwin","no","0MI1",,"0MI1",,,
7322,"0MI2","small_airport","Stier Airstrip",44.52220153808594,-83.68329620361328,850,"NA","US","US-MI","Glennie","no","0MI2",,"0MI2",,,
7323,"0MI3","small_airport","Kelleys Airport",44.633399963378906,-84.4833984375,1000,"NA","US","US-MI","Grayling","no","0MI3",,"0MI3",,,
7324,"0MI4","small_airport","Lesterson Field",46.270198822021484,-87.3864974975586,1120,"NA","US","US-MI","Gwinn","no","0MI4",,"0MI4",,,
7325,"0MI6","small_airport","Young's Airport",46.38750076293945,-85.18399810791016,800,"NA","US","US-MI","Hulbert","no","0MI6",,"0MI6",,,
7326,"0MI7","heliport","Four Star Heliport",42.04309844970703,-83.3593978881836,603,"NA","US","US-MI","Carleton","no","0MI7",,"0MI7",,,
7327,"0MI8","small_airport","Twin Lakes Airport",44.900001525878906,-84.30000305175781,1275,"NA","US","US-MI","Lewiston","no","0MI8",,"0MI8",,,
7328,"0MI9","heliport","Henry Ford Hospital Heliport",42.36750030517578,-83.08439636230469,633,"NA","US","US-MI","Detroit","no","0MI9",,"0MI9",,,
7329,"0MN0","seaplane_base","Winner's Landing Seaplane Base",44.79690170288086,-92.98410034179688,690,"NA","US","US-MN","St Paul Park","no","0MN0",,"0MN0",,,
7330,"0MN1","small_airport","Brinkman Airport",44.2625007629,-94.06970214840001,1020,"NA","US","US-MN","St. Peter","no","0MN1",,"0MN1",,,
7331,"0MN2","seaplane_base","Grindstone Lake Seaplane Base",46.13330078125,-93.00299835205078,1025,"NA","US","US-MN","Sandstone","no","0MN2",,"0MN2",,,
7332,"0MN3","seaplane_base","Lower Hay Lake Seaplane Base",46.677799224853516,-94.2925033569336,1230,"NA","US","US-MN","Jenkins","no","0MN3",,"0MN3",,,
7333,"0MN4","seaplane_base","Paul's Seaplane Base",46.47719955444336,-94.3031005859375,1200,"NA","US","US-MN","Nisswa","no","0MN4",,"0MN4",,,
7334,"0MN5","small_airport","Pankratz Airport",44.30720138549805,-94.91690063476562,1033,"NA","US","US-MN","Springfield","no","0MN5",,"0MN5",,,
7335,"0MN6","small_airport","Matson Field",43.662200927734375,-92.404296875,1365,"NA","US","US-MN","Spring Valley","no","0MN6",,"0MN6",,,
7336,"0MN7","heliport","Ely Bloomenson Community Hospital Heliport",47.89910125732422,-91.87300109863281,1450,"NA","US","US-MN","Ely","no","0MN7",,"0MN7",,,
7337,"0MN8","small_airport","Keller Airport",45.135799407958984,-92.8593978881836,990,"NA","US","US-MN","Stillwater","no","0MN8",,"0MN8",,,
7338,"0MN9","heliport","Triple H Heliport",45.31330108642578,-93.71759796142578,980,"NA","US","US-MN","Big Lake","no","0MN9",,"0MN9",,,
7339,"0MO0","small_airport","Ferros Ranch-Aero Airport",38.410301208496094,-93.8501968383789,775,"NA","US","US-MO","Clinton","no","0MO0",,"0MO0",,,
7340,"0MO1","small_airport","Flying G Airport",38.544498443603516,-94.0947036743164,920,"NA","US","US-MO","Creighton","no","0MO1",,"0MO1",,,
7341,"0MO2","small_airport","Short-N-Ruff Airport",37.78670120239258,-90.78009796142578,950,"NA","US","US-MO","Caledonia","no","0MO2",,"0MO2",,,
7342,"0MO3","small_airport","Arvin Ranch Airport",38.44029998779297,-94.59329986572266,1000,"NA","US","US-MO","Drexel","no","0MO3",,"0MO3",,,
7343,"0MO4","heliport","Bert Walter Berkowitz Heliport",39.08530044555664,-94.57379913330078,890,"NA","US","US-MO","Kansas City","no","0MO4",,"0MO4",,,
7344,"0MO5","small_airport","Joe D Lewis Airport",40.133399963378906,-92.1001968383789,780,"NA","US","US-MO","Edina","no","0MO5",,"0MO5",,,
7345,"0MO6","small_airport","Hall Airport",40.11669921875,-92.26689910888672,850,"NA","US","US-MO","Edina","no","0MO6",,"0MO6",,,
7346,"0MO7","heliport","St Joseph Hospital West Heliport",38.80329895019531,-90.77629852294922,531,"NA","US","US-MO","Lake Saint Louis","no","0MO7",,"0MO7",,,
7347,"0MO8","small_airport","Sloan's Airport",39.14059829711914,-90.73680114746094,437,"NA","US","US-MO","Elsberry","no","0MO8",,"0MO8",,,
7348,"0MO9","heliport","Emerson Heliport",38.72949981689453,-90.27839660644531,575,"NA","US","US-MO","Ferguson","no","0MO9",,"0MO9",,,
7349,"0MS0","small_airport","Topton Air Estates Airport",32.474998474121094,-88.61669921875,453,"NA","US","US-MS","Meridian","no","0MS0",,"0MS0",,,
7350,"0MS1","small_airport","Franklin Field",31.425199508666992,-90.90290069580078,200,"NA","US","US-MS","Meadville","no","0MS1",,"0MS1",,,
7351,"0MS2","small_airport","Morgan Field",31.541799545288086,-89.3917007446289,300,"NA","US","US-MS","Seminary","no","0MS2",,"0MS2",,,
7352,"0MS3","heliport","Baptist Memorial Hospital-North Ms Heliport",34.347801208496094,-89.51899719238281,430,"NA","US","US-MS","Oxford","no","0MS3",,"0MS3",,,
7353,"0MS4","heliport","Sheriff's Courthouse Heliport",30.375999450683594,-89.08619689941406,50,"NA","US","US-MS","Gulfport","no","0MS4",,"0MS4",,,
7354,"0MS5","small_airport","Lewis Air Service Airport",33.39179992675781,-90.91680145263672,120,"NA","US","US-MS","Leland","no","0MS5",,"0MS5",,,
7355,"0MS6","heliport","Levert Heliport",30.301300048828125,-89.2344970703125,25,"NA","US","US-MS","Pass Christian","no","0MS6",,"0MS6",,,
7356,"0MS7","small_airport","Hale Field",34.34260177612305,-89.14309692382812,346,"NA","US","US-MS","Pontotoc","no","0MS7",,"0MS7",,,
7357,"0MS8","small_airport","Catfish Point Airport",33.69929885864258,-91.16510009765625,154,"NA","US","US-MS","Benoit","no","0MS8",,"0MS8",,,
7358,"0MS9","small_airport","Shenandoah Valley Farms Airport",33.80070114135742,-89.02729797363281,300,"NA","US","US-MS","Houston","no","0MS9",,"0MS9",,,
7359,"0MT1","small_airport","Williams Field",47.497501373291016,-112.39099884033203,4070,"NA","US","US-MT","Augusta","no","0MT1",,"0MT1",,,
7360,"0MT2","heliport","Big Sandy Medical Center Heliport",48.1796989440918,-110.10900115966797,2750,"NA","US","US-MT","Big Sandy","no","0MT2",,"0MT2",,,
7361,"0MT3","heliport","Stock Farm Heliport",46.25080108642578,-114.06700134277344,3920,"NA","US","US-MT","Hamilton","no","0MT3",,"0MT3",,,
7362,"0MT4","small_airport","Kimp Airport",46.27859878540039,-114.14099884033203,3510,"NA","US","US-MT","Hamilton","no","0MT4",,"0MT4",,,
7363,"0MT5","small_airport","Cottonwood Airport",45.63420104980469,-108.8489990234375,3350,"NA","US","US-MT","Laurel","no","0MT5",,"0MT5",,,
7364,"0MT6","small_airport","Hanson Airport",48.04059982299805,-114.67900085449219,3900,"NA","US","US-MT","Marion","no","0MT6",,"0MT6",,,
7365,"0MT7","small_airport","Pinehurst Ranch Airport",47.66080093383789,-115.40399932861328,2460,"NA","US","US-MT","Thompson Falls","no","0MT7",,"0MT7",,,
7366,"0MT8","heliport","Glacier Heli Tours Heliport",48.486698150634766,-113.99800109863281,3300,"NA","US","US-MT","West Glacier","no","0MT8",,"0MT8",,,
7367,"0MT9","small_airport","Lone Hawk Airport",48.483299255371094,-114.49299621582031,3284,"NA","US","US-MT","White Fish","no","0MT9",,"0MT9",,,
7368,"0MU0","small_airport","Eagle Field",37.23469924926758,-91.09359741210938,784,"NA","US","US-MO","Ellington","no","0MU0",,"0MU0",,,
7369,"0MU1","small_airport","Sunderland Airport",37.246700286865234,-94.17389678955078,1027,"NA","US","US-MO","Avilla","no","0MU1",,"0MU1",,,
7370,"0MU2","heliport","Christian Hospital Northeast Heliport",38.77450180053711,-90.23899841308594,520,"NA","US","US-MO","Florissant","no","0MU2",,"0MU2",,,
7371,"0MU3","heliport","Hannibal Regional Hospital Heliport",39.71120071411133,-91.45069885253906,744,"NA","US","US-MO","Hannibal","no","0MU3",,"0MU3",,,
7372,"0MU4","small_airport","Slaughter Airport",39.6161003112793,-92.86689758300781,800,"NA","US","US-MO","Marceline","no","0MU4",,"0MU4",,,
7373,"0MU5","heliport","Holden Heliport",38.71969985961914,-93.99440002441406,865,"NA","US","US-MO","Holden","no","0MU5",,"0MU5",,,
7374,"0MU6","heliport","Bradbury-Rolf Memorial Heliport",39.073299407958984,-93.73590087890625,815,"NA","US","US-MO","Higginsville","no","0MU6",,"0MU6",,,
7375,"0MU7","small_airport","Lambs Field",38.875,-94.13970184326172,1070,"NA","US","US-MO","Lone Jack","no","0MU7",,"0MU7",,,
7376,"0MU8","small_airport","Prince STOLport",37.43870162963867,-89.75900268554688,582,"NA","US","US-MO","Millersville","no","0MU8",,"0MU8",,,
7377,"0MY0","heliport","Kenyon Heliport",44.333900451660156,-92.94329833984375,1500,"NA","US","US-MN","Kenyon","no","0MY0",,"0MY0",,,
7378,"0MY1","heliport","Bozeman Deaconess Hospital Heliport",45.66999816894531,-111.01899719238281,4925,"NA","US","US-MT","Bozeman","no","0MY1",,"0MY1",,,
7379,"0N0","small_airport","Roosterville Airport",39.291099548339844,-94.44219970703125,1004,"NA","US","US-MO","Liberty","no","0N0",,"0N0",,,
7380,"0N4","small_airport","Chandelle Estates Airport",39.202301025390625,-75.4854965209961,22,"NA","US","US-DE","Dover","no","0N4",,"0N4",,,
7381,"0N5","heliport","Deldot Helistop",39.149600982666016,-75.50489807128906,30,"NA","US","US-DE","Dover","no","0N5",,"0N5",,,
7382,"0N6","small_airport","Henderson Aviation Airport",39.01259994506836,-75.53350067138672,50,"NA","US","US-DE","Felton","no","0N6",,"0N6",,,
7383,"0NA1","small_airport","Goerger Airport",46.24549865722656,-97.03759765625,1045,"NA","US","US-ND","Barney","no","0NA1",,"0NA1",,,
7384,"0NA5","small_airport","Sorlie Airport",48.0010986328125,-99.56289672851562,1580,"NA","US","US-ND","Maddock","no","0NA5",,"0NA5",,,
7385,"0NA9","small_airport","Boyd's Turf Airport",46.75,-103.8010025024414,2750,"NA","US","US-ND","Golva","no","0NA9",,"0NA9",,,
7386,"0NC0","heliport","Wayne Memorial Hospital Inc. Heliport",35.398799896240234,-77.94969940185547,106,"NA","US","US-NC","Goldsboro","no","0NC0",,"0NC0",,,
7387,"0NC1","small_airport","Bearwallow Farm Airport",35.45709991455078,-82.37539672851562,3608,"NA","US","US-NC","Hendersonville","no","0NC1",,"0NC1",,,
7388,"0NC2","heliport","Moore Regional Hospital Heliport",35.204898834228516,-79.45670318603516,460,"NA","US","US-NC","Pinehurst","no","0NC2",,"0NC2",,,
7389,"0NC3","heliport","Washington County Hospital Heliport",35.87519836425781,-76.69969940185547,19,"NA","US","US-NC","Plymouth","no","0NC3",,"0NC3",,,
7390,"0NC4","heliport","Wake Medical Center Heliport",35.786800384521484,-78.58580017089844,245,"NA","US","US-NC","Raleigh","no","0NC4",,"0NC4",,,
7391,"0NC5","heliport","Nash General Hospital Heliport",35.91889953613281,-77.78919982910156,156,"NA","US","US-NC","Rocky Mount","no","0NC5",,"0NC5",,,
7392,"0NC6","heliport","Our Community Hospital Heliport",36.13130187988281,-77.41889953613281,113,"NA","US","US-NC","Scotland Neck","no","0NC6",,"0NC6",,,
7393,"0NC7","small_airport","Lindsay Airport",36.357200622558594,-79.99749755859375,700,"NA","US","US-NC","Madison","no","0NC7",,"0NC7",,,
7394,"0NC8","small_airport","Double Creek Ranch Airport",35.755699157714844,-80.73529815673828,830,"NA","US","US-NC","Cleveland","no","0NC8",,"0NC8",,,
7395,"0NC9","heliport","Maria Parham Hospital Heliport",36.3306999206543,-78.44969940185547,465,"NA","US","US-NC","Henderson","no","0NC9",,"0NC9",,,
7396,"0ND0","small_airport","Gilbertson Field",47.92919921875,-99.40039825439453,1550,"NA","US","US-ND","Flora","no","0ND0",,"0ND0",,,
7397,"0ND6","small_airport","Schumacher Strip",46.05500030517578,-99.91709899902344,2020,"NA","US","US-ND","Hague","no","0ND6",,"0ND6",,,
7398,"0ND7","small_airport","Saville Private Airport",46.465301513671875,-100.1050033569336,1961,"NA","US","US-ND","Hazelton","no","0ND7",,"0ND7",,,
7399,"0NE0","small_airport","Merrihew Airport",41.849998474121094,-101.94999694824219,3815,"NA","US","US-NE","Ashby","no","0NE0",,"0NE0",,,
7400,"0NE1","small_airport","Runner Landing Area Airport",42.40719985961914,-101.93199920654297,3760,"NA","US","US-NE","Ashby","no","0NE1",,"0NE1",,,
7401,"0NE2","small_airport","Merry Airport",41.866600036621094,-101.91699981689453,3791,"NA","US","US-NE","Ashby","no","0NE2",,"0NE2",,,
7402,"0NE3","heliport","Syracuse Hospital Heliport",40.667198181152344,-96.1864013671875,1120,"NA","US","US-NE","Syracuse","no","0NE3",,"0NE3",,,
7403,"0NE4","heliport","Franklin County Memorial Hospital Heliport",40.097198486328125,-98.95040130615234,1950,"NA","US","US-NE","Franklin","no","0NE4",,"0NE4",,,
7404,"0NE5","small_airport","Newman Airport",41.02109909057617,-102.01799774169922,3525,"NA","US","US-NE","Big Springs","no","0NE5",,"0NE5",,,
7405,"0NE6","small_airport","Frager Field",40.43330001831055,-98.07060241699219,1765,"NA","US","US-NE","Fairfield","no","0NE6",,"0NE6",,,
7406,"0NJ0","heliport","Atlantic City Medical Center Heliport",39.3589702498,-74.4346717,82,"NA","US","US-NJ","Atlantic City","no","0NJ0",,"0NJ0",,,
7407,"0NJ1","heliport","Berkeley Township Police Heliport",39.90729904174805,-74.23490142822266,54,"NA","US","US-NJ","Bayville","no","0NJ1",,"0NJ1",,,
7408,"0NJ2","heliport","Ballymere Heliport",40.752899169921875,-74.43990325927734,280,"NA","US","US-NJ","Morristown","no","0NJ2",,"0NJ2",,,
7409,"0NJ3","heliport","Mount Holly Heliport",39.966800689697266,-74.79959869384766,45,"NA","US","US-NJ","Mount Holly","no","0NJ3",,"0NJ3",,,
7410,"0NJ4","heliport","Weichert Headquarters Heliport",40.94070053100586,-74.46150207519531,103,"NA","US","US-NJ","Morris Plains","no","0NJ4",,"0NJ4",,,
7411,"0NJ5","small_airport","Fla-Net Airport",40.88589859008789,-74.70570373535156,1040,"NA","US","US-NJ","Netcong","no","0NJ5",,"0NJ5",,,
7412,"0NJ6","small_airport","Dix Field",39.31679916381836,-74.63289642333984,8,"NA","US","US-NJ","Linwood","no","0NJ6",,"0NJ6",,,
7413,"0NJ7","heliport","Essex Generating Station Heliport",40.73780059814453,-74.118896484375,8,"NA","US","US-NJ","Newark","no","0NJ7",,"0NJ7",,,
7414,"0NJ8","heliport","Port Newark Helistop",40.702301025390625,-74.15070343017578,10,"NA","US","US-NJ","Newark","no","0NJ8",,"0NJ8",,,
7415,"0NJ9","heliport","Jersey Tpke New Brunswick Helistop",40.477298736572266,-74.40789794921875,70,"NA","US","US-NJ","New Brunswick","no","0NJ9",,"0NJ9",,,
7416,"0NK0","small_airport","Berdick Field",42.33399963378906,-78.79090118408203,1690,"NA","US","US-NY","Cattaraugus","no","0NK0",,"0NK0",,,
7417,"0NK1","small_airport","Spring Brook Airport",43.361698150634766,-76.22019958496094,450,"NA","US","US-NY","Central Square","no","0NK1",,"0NK1",,,
7418,"0NK2","small_airport","Westwind Farm Airport",42.9833984375,-74.01619720458984,800,"NA","US","US-NY","Charlton","no","0NK2",,"0NK2",,,
7419,"0NK3","small_airport","Seven Gullies Airport",42.695899963378906,-77.79219818115234,600,"NA","US","US-NY","Groveland","no","0NK3",,"0NK3",,,
7420,"0NK4","heliport","Medical Center Heliport",40.72589874267578,-73.55370330810547,80,"NA","US","US-NY","Hempstead","no","0NK4",,"0NK4",,,
7421,"0NK5","heliport","Mid-Hudson Helicopter Service Heliport",41.606201171875,-73.82759857177734,270,"NA","US","US-NY","Hopewell Junction","no","0NK5",,"0NK5",,,
7422,"0NK6","small_airport","Lapeer Flyer Airport",42.43840026855469,-76.08879852294922,1280,"NA","US","US-NY","Marathon","no","0NK6",,"0NK6",,,
7423,"0NK7","heliport","Ibm King St Heliport",41.102500915527344,-73.7260971069336,470,"NA","US","US-NY","Armonk","no","0NK7",,"0NK7",,,
7424,"0NK8","small_airport","Rocky Reef Farm Airport",41.9208984375,-73.67040252685547,450,"NA","US","US-NY","Attlebury","no","0NK8",,"0NK8",,,
7425,"0NK9","small_airport","Lakeview Airport",43.01029968261719,-75.82689666748047,1050,"NA","US","US-NY","Chittenango","no","0NK9",,"0NK9",,,
7426,"0NM0","small_airport","Columbus Municipal Airport",31.823699951171875,-107.62699890136719,4024,"NA","US","US-NM","Columbus","no","0NM0",,"0NM0",,,
7427,"0NM7","small_airport","Negrito Airstrip",33.52090072631836,-108.54299926757812,8143,"NA","US","US-NM","Reserve","no","0NM7",,"0NM7",,,
7428,"0NV1","heliport","Summerlin Medical Center Heliport",36.193599700927734,-115.3010025024414,2745,"NA","US","US-NV","Las Vegas","no","0NV1",,"0NV1",,,
7429,"0NY0","small_airport","Bennetts Airport",43.70009994506836,-73.98290252685547,1040,"NA","US","US-NY","North Creek","no","0NY0",,"0NY0",,,
7430,"0NY1","small_airport","Russell Field",43.139198303222656,-73.6531982421875,260,"NA","US","US-NY","Northumberland","no","0NY1",,"0NY1",,,
7431,"0NY3","small_airport","Kermizian Airport",43.31399917602539,-74.93209838867188,1440,"NA","US","US-NY","Ohio","no","0NY3",,"0NY3",,,
7432,"0NY5","heliport","State Police Troop D Heliport",43.094200134277344,-75.64959716796875,507,"NA","US","US-NY","Oneida","no","0NY5",,"0NY5",,,
7433,"0NY6","heliport","New York State Police Heliport",42.92839813232422,-76.6155014038086,600,"NA","US","US-NY","Auburn","no","0NY6",,"0NY6",,,
7434,"0NY7","small_airport","Murphys Landing Strip",43.037601470947266,-74.1843032836914,940,"NA","US","US-NY","Perth","no","0NY7",,"0NY7",,,
7435,"0NY8","small_airport","Wenskoski Field",42.99729919433594,-74.24539947509766,800,"NA","US","US-NY","Perth","no","0NY8",,"0NY8",,,
7436,"0O0","seaplane_base","San Luis Reservoir Seaplane Base",37.05830001831055,-121.1259994506836,544,"NA","US","US-CA","Los Banos","no","0O0",,"0O0",,,
7437,"0O4","small_airport","Corning Municipal Airport",39.943599700927734,-122.1709976196289,292,"NA","US","US-CA","Corning","no","0O4",,"0O4",,"http://en.wikipedia.org/wiki/Corning_Municipal_Airport_(California)",
7438,"0O9","small_airport","Ward Field",41.845699310302734,-123.98500061035156,356,"NA","US","US-CA","Gasquet","no","0O9",,"0O9",,,
7439,"0OH1","heliport","Cirino Heliport",41.44390106201172,-81.32759857177734,1250,"NA","US","US-OH","Chagrin Falls","no","0OH1",,"0OH1",,,
7440,"0OH2","small_airport","Jenkins Field",39.97060012817383,-83.9115982055664,1080,"NA","US","US-OH","North Hampton","no","0OH2",,"0OH2",,,
7441,"0OH3","heliport","Hamilton County Sheriff's Patrol Heliport",39.27920150756836,-84.564697265625,865,"NA","US","US-OH","Forest Park","no","0OH3",,"0OH3",,,
7442,"0OH6","small_airport","Fry Field",39.60060119628906,-84.01969909667969,775,"NA","US","US-OH","Spring Valley","no","0OH6",,"0OH6",,,
7443,"0OH7","small_airport","Apple Airport",40.1432991027832,-84.1718978881836,1000,"NA","US","US-OH","Piqua","no","0OH7",,"0OH7",,,
7444,"0OH8","small_airport","Fry Airport",40.18840026855469,-84.256103515625,900,"NA","US","US-OH","Piqua","no","0OH8",,"0OH8",,,
7445,"0OH9","small_airport","Parknavy STOLport",40.07170104980469,-83.22989654541016,943,"NA","US","US-OH","Plain City","no","0OH9",,"0OH9",,,
7446,"0OI0","heliport","Foltz Heliport",40.73590087890625,-81.2468032836914,1012,"NA","US","US-OH","East Canton","no","0OI0",,"0OI0",,,
7447,"0OI1","heliport","Autolite Heliport",41.17919921875,-83.41519927978516,759,"NA","US","US-OH","Fostoria","no","0OI1",,"0OI1",,,
7448,"0OI2","small_airport","Unger Field",39.359798431396484,-83.4177017211914,940,"NA","US","US-OH","Greenfield","no","0OI2",,"0OI2",,,
7449,"0OI3","small_airport","Galloway Airport",41.38209915161133,-82.71610260009766,643,"NA","US","US-OH","Sandusky","no","0OI3",,"0OI3",,,
7450,"0OI4","small_airport","Salt Box Airport",41.32426452636719,-81.15930938720703,1250,"NA","US","US-OH","Hiram","no","0OI4",,"0OI4",,,
7451,"0OI6","small_airport","Victor's Landing Airport",41.83810043334961,-80.6436996459961,860,"NA","US","US-OH","Kingsville","no","0OI6",,"0OI6",,,
7452,"0OI9","small_airport","Hidden Quarry Airport",38.894500732421875,-83.1135025024414,830,"NA","US","US-OH","Lucasville","no","0OI9",,"0OI9",,,
7453,"0OK0","small_airport","Edmond Airport",35.68339920043945,-97.43360137939453,1169,"NA","US","US-OK","Edmond","no","0OK0",,"0OK0",,,
7454,"0OK1","small_airport","Mckey Airport",34.65700149536133,-97.40170288085938,1056,"NA","US","US-OK","Elmore City","no","0OK1",,"0OK1",,,
7455,"0OK2","heliport","Parkview Hospital Heliport",35.52980041503906,-97.98390197753906,1349,"NA","US","US-OK","El Reno","no","0OK2",,"0OK2",,,
7456,"0OK3","small_airport","Mckinley Ranch Airport",35.6194992065,-98.5225982666,1420,"NA","US","US-OK","Geary","no","0OK3",,"0OK3",,,
7457,"0OK4","small_airport","Rock Creek Farm Airport",34.66059875488281,-96.25360107421875,730,"NA","US","US-OK","Coal Gate","no","0OK4",,"0OK4",,,
7458,"0OK5","small_airport","Chappell Airport",35.88890075683594,-97.40029907226562,1070,"NA","US","US-OK","Guthrie","no","0OK5",,"0OK5",,,
7459,"0OK6","small_airport","Ellis/Harvey Airport",35.801700592041016,-97.38610076904297,1220,"NA","US","US-OK","Guthrie","no","0OK6",,"0OK6",,,
7460,"0OK7","heliport","Shattuck Hospital Heliport",36.25,-99.87539672851562,2200,"NA","US","US-OK","Shattuck","no","0OK7",,"0OK7",,,
7461,"0OK8","small_airport","Cade's Airport",36.29249954223633,-97.59310150146484,1140,"NA","US","US-OK","Covington","no","0OK8",,"0OK8",,,
7462,"0OK9","small_airport","Crystal Airport",36.213401794433594,-96.63700103759766,1016,"NA","US","US-OK","Jennings","no","0OK9",,"0OK9",,,
7463,"0OR0","heliport","Providence Hospital Heliport",42.3386993408,-122.861999512,1350,"NA","US","US-OR","Medford","no","0OR0",,"0OR0",,"http://en.wikipedia.org/wiki/Providence_Hospital_Heliport",
7465,"0OR2","heliport","Hendershots Heliport",42.133201599121094,-123.45099639892578,1200,"NA","US","US-OR","Merlin","no","0OR2",,"0OR2",,,
7466,"0OR3","small_airport","Long Ranch Airport",42.01900100708008,-121.7040023803711,4090,"NA","US","US-OR","Merrill","no","0OR3",,"0OR3",,,
7467,"0OR4","heliport","Round Butte Heliport",44.61650085449219,-121.26799774169922,2125,"NA","US","US-OR","Metolius","no","0OR4",,"0OR4",,,
7468,"0OR5","small_airport","East Oregon Cattle Co Airport",42.5035018921,-122.855003357,1345,"NA","US","US-OR","Eagle Point","no","0OR5",,"0OR5",,,
7469,"0OR6","small_airport","Rome Service Airport",42.83399963378906,-117.62899780273438,3387,"NA","US","US-OR","Rome","no","0OR6",,"0OR6",,,
7470,"0OR7","small_airport","Marr Field",44.854000091552734,-123.26399993896484,275,"NA","US","US-OR","Monmouth","no","0OR7",,"0OR7",,,
7471,"0OR8","small_airport","Sutton on Rogue Airport",42.484798431396484,-122.86599731445312,1260,"NA","US","US-OR","White City","no","0OR8",,"0OR8",,,
7472,"0OR9","small_airport","Hanel Field",45.59260177612305,-121.54900360107422,1626,"NA","US","US-OR","Mount Hood","no","0OR9",,"0OR9",,,
7473,"0P0","heliport","Valley Forge Bicentennial Heliport",40.12120056152344,-75.40599822998047,260,"NA","US","US-PA","Norristown","no","0P0",,"0P0",,,
7474,"0P1","small_airport","Van Pak Airport",39.83219909667969,-99.5687026977539,2213,"NA","US","US-KS","Prairie View","no","0P1",,"0P1",,,
7475,"0P2","small_airport","Shoestring Aviation Airfield",39.7947998046875,-76.64720153808594,1000,"NA","US","US-PA","Stewartstown","no","0P2",,"0P2",,,
7476,"0PA0","small_airport","Philadelphia Gliderport",40.328399658203125,-75.24130249023438,670,"NA","US","US-PA","Hilltown","no","0PA0",,"0PA0",,,
7477,"0PA1","heliport","Phoenix Technologies Heliport",40.11819839477539,-75.40129852294922,252,"NA","US","US-PA","Norristown","no","0PA1",,"0PA1",,,
7478,"0PA2","small_airport","Haunstein Ultralightport",40.31679916379999,-77.1247024536,600,"NA","US","US-PA","Shermans Dale","no","0PA2",,"0PA2",,,
7479,"0PA3","small_airport","Robbins Farm Airport",41.7495002746582,-76.76020050048828,1207,"NA","US","US-PA","Troy","no","0PA3",,"0PA3",,,
7480,"0PA4","small_airport","Ecko Field",40.23759841918945,-76.72470092773438,380,"NA","US","US-PA","Hummelstown","no","0PA4",,"0PA4",,,
7481,"0PA5","small_airport","Fisher Airport",41.49449920654297,-79.83090209960938,1500,"NA","US","US-PA","Franklin","no","0PA5",,"0PA5",,,
7482,"0PA6","small_airport","Hostetler Airport",40.63090133666992,-77.85030364990234,760,"NA","US","US-PA","Huntingdon","no","0PA6",,"0PA6",,,
7483,"0PA7","small_airport","Linvill Airport",39.88479995727539,-75.41490173339844,180,"NA","US","US-PA","Media","no","0PA7",,"0PA7",,,
7484,"0PA8","heliport","Community Medical Center Nap Heliport",41.400001525878906,-75.63529968261719,508,"NA","US","US-PA","Scranton","no","0PA8",,"0PA8",,,
7485,"0PA9","heliport","Carson Heliport",40.33340072631836,-75.21630096435547,415,"NA","US","US-PA","Perkasie","no","0PA9",,"0PA9",,,
7486,"0PN0","small_airport","Fletcher Airport",41.443599700927734,-80.15390014648438,1335,"NA","US","US-PA","Sheakeyville","no","0PN0",,"0PN0",,,
7487,"0PN1","seaplane_base","Pete's Water Landing Seaplane Base",40.69940185546875,-79.618896484375,757,"NA","US","US-PA","Freeport","no","0PN1",,"0PN1",,,
7488,"0PN2","small_airport","Flying Acres Airport",41.07310104370117,-80.07029724121094,1247,"NA","US","US-PA","Slippery Rock","no","0PN2",,"0PN2",,,
7489,"0PN3","heliport","Wyeth-Ayerst Nr Heliport",40.15869903564453,-75.4634017944336,186,"NA","US","US-PA","Collegeville","no","0PN3",,"0PN3",,,
7490,"0PN4","small_airport","Kitner Airport",40.4128990173,-77.24140167239999,960,"NA","US","US-PA","New Bloomfield","no","0PN4",,"0PN4",,,
7491,"0PN5","small_airport","Nichols Airport",41.77920150756836,-79.59839630126953,1761,"NA","US","US-PA","Spartansburg","no","0PN5",,"0PN5",,,
7492,"0PN6","small_airport","Memmi Airport",40.16899871826172,-77.99250030517578,1138,"NA","US","US-PA","Three Springs","no","0PN6",,"0PN6",,,
7493,"0PN7","small_airport","Drillmore Acres Airport",40.128299713134766,-77.63140106201172,680,"NA","US","US-PA","Newburg","no","0PN7",,"0PN7",,,
7494,"0PN8","small_airport","Shriver Airport",41.61669921875,-79.68309783935547,1560,"NA","US","US-PA","Titusville","no","0PN8",,"0PN8",,,
